{"type":"FeatureCollection","features":[{"type":"Feature","feature_key":"570b054d8ff829d3","properties":{"featurecla":"Land","scalerank":0,"min_zoom":0,"geometry_kind":"polygon"},"geometry":{"type":"Polygon","coordinates":[[[79.821951,11.391059],[79.819347,11.381496],[79.810313,11.378892],[79.782725,11.378892],[79.776052,11.380357],[79.769298,11.380927],[79.7588,11.378363],[79.749848,11.373684],[79.740408,11.366441],[79.684337,11.312201],[79.67628,11.296454],[79.683116,11.296454],[79.6963,11.303412],[79.742035,11.335598],[79.751964,11.340522],[79.759288,11.358344],[79.776378,11.362982],[79.796886,11.359036],[79.823741,11.346666],[79.829926,11.346096],[79.833018,11.341986],[79.834972,11.263861],[79.855317,11.159857],[79.852224,11.006985],[79.84669,10.979844],[79.840668,10.950141],[79.847341,10.809638],[79.849864,10.755194],[79.850271,10.592108],[79.85963,10.551459],[79.86378,10.37873],[79.8567,10.29328],[79.851329,10.282213],[79.834321,10.278754],[79.814626,10.272406],[79.795095,10.269232],[79.778575,10.275377],[79.78004,10.296617],[79.757091,10.309068],[79.633149,10.328599],[79.621267,10.324164],[79.614106,10.309556],[79.630382,10.310492],[79.646495,10.309638],[79.661794,10.307074],[79.67628,10.30272],[79.684581,10.298733],[79.694672,10.291653],[79.703624,10.289049],[79.730805,10.289049],[79.758962,10.282213],[79.773692,10.273668],[79.772472,10.261705],[79.759776,10.258246],[79.580089,10.295885],[79.563487,10.297105],[79.556651,10.298651],[79.552745,10.30272],[79.551768,10.3133],[79.556895,10.316067],[79.565196,10.315741],[79.573904,10.316962],[79.604015,10.329088],[79.607107,10.336005],[79.586925,10.343695],[79.567719,10.335883],[79.528575,10.338324],[79.532237,10.330024],[79.532237,10.323188],[79.511485,10.316596],[79.459727,10.308295],[79.437266,10.309556],[79.411957,10.32099],[79.398123,10.324652],[79.385509,10.320136],[79.36378,10.301907],[79.304942,10.268134],[79.286143,10.252834],[79.272227,10.234442],[79.270274,10.223334],[79.270681,10.20954],[79.269216,10.197821],[79.261974,10.192857],[79.248302,10.189195],[79.240001,10.179755],[79.236339,10.166571],[79.237478,10.151923],[79.244314,10.084947],[79.254161,10.054267],[79.279063,10.035834],[79.240733,10.010565],[79.200369,9.970282],[79.141856,9.891181],[79.121349,9.850246],[79.103526,9.830146],[79.100841,9.826077],[79.094086,9.802314],[79.07781,9.782172],[79.038829,9.747219],[78.980805,9.667182],[78.979828,9.658637],[78.980235,9.649115],[78.977306,9.637926],[78.97283,9.631293],[78.962087,9.622707],[78.956798,9.617499],[78.94752,9.602851],[78.938324,9.583686],[78.931488,9.561672],[78.925304,9.513617],[78.913259,9.47427],[78.915294,9.45303],[78.933442,9.416449],[78.959727,9.384955],[79.039887,9.314683],[79.074718,9.299872],[79.115571,9.291246],[79.25172,9.28852],[79.273774,9.296698],[79.29713,9.312649],[79.320079,9.32331],[79.341075,9.315863],[79.345714,9.306545],[79.34254,9.299018],[79.336681,9.290473],[79.333669,9.278266],[79.335704,9.267646],[79.340587,9.260932],[79.345225,9.255927],[79.347341,9.250312],[79.353526,9.240912],[79.367931,9.227607],[79.438243,9.176337],[79.453624,9.159003],[79.440278,9.151353],[79.424001,9.159084],[79.361013,9.213446],[79.292735,9.250312],[79.232432,9.25788],[79.21697,9.267401],[79.20102,9.266506],[79.184093,9.271796],[79.165375,9.274237],[79.129405,9.256334],[79.098643,9.257229],[79.087169,9.253811],[79.060802,9.264594],[79.025727,9.273749],[78.988943,9.278266],[78.956798,9.274848],[78.948985,9.270494],[78.928966,9.253811],[78.918468,9.251614],[78.911306,9.252143],[78.90447,9.253567],[78.895518,9.253811],[78.861013,9.248969],[78.843761,9.243964],[78.815196,9.22842],[78.77711,9.219387],[78.761567,9.209703],[78.751964,9.200588],[78.740733,9.192816],[78.727794,9.187445],[78.67628,9.184149],[78.661306,9.177191],[78.655121,9.161566],[78.648936,9.151435],[78.634776,9.144599],[78.618826,9.14053],[78.48585,9.124823],[78.44988,9.116604],[78.41212,9.09984],[78.377452,9.07746],[78.239757,8.965562],[78.217621,8.938951],[78.182791,8.877102],[78.177908,8.86107],[78.17449,8.79442],[78.170421,8.771877],[78.162364,8.753485],[78.175792,8.763902],[78.188731,8.765448],[78.20045,8.76968],[78.210216,8.788275],[78.21518,8.765448],[78.2046,8.753323],[78.186534,8.74494],[78.1692,8.733629],[78.164806,8.726508],[78.154959,8.698879],[78.140473,8.680609],[78.136729,8.669867],[78.142589,8.657904],[78.114594,8.657904],[78.135509,8.6258],[78.142345,8.593085],[78.128266,8.488023],[78.123302,8.477525],[78.114594,8.466132],[78.087169,8.440497],[78.079845,8.431952],[78.062755,8.373196],[78.055919,8.363715],[78.038829,8.360907],[77.999766,8.344916],[77.806163,8.228664],[77.793468,8.215318],[77.768321,8.181545],[77.752452,8.173814],[77.643809,8.155707],[77.595225,8.138983],[77.561046,8.114569],[77.565278,8.082506],[77.510916,8.075995],[77.5,8.07804181688944],[77.5,11.4],[79.82104146017461,11.4],[79.821951,11.391059]]]},"source_id":"natural_earth_10m_land","acquired_at":"2026-08-31T14:57:25.858632+00:00"},{"type":"Feature","feature_key":"afba796f9d5d2417","properties":{"featurecla":"Land","scalerank":6,"min_zoom":6,"geometry_kind":"polygon"},"geometry":{"type":"Polygon","coordinates":[[[79.72283,9.492621],[79.714692,9.485053],[79.689464,9.483588],[79.666026,9.491278],[79.655772,9.503892],[79.655772,9.544867],[79.658702,9.555365],[79.665294,9.554023],[79.67213,9.5456],[79.67628,9.53498],[79.693533,9.529608],[79.714122,9.528062],[79.719249,9.524359],[79.730805,9.50019],[79.72283,9.492621]]]},"source_id":"natural_earth_10m_land","acquired_at":"2026-08-31T14:57:25.858632+00:00"},{"type":"Feature","feature_key":"b34506d860ad617a","properties":{"featurecla":"Land","scalerank":5,"min_zoom":4,"geometry_kind":"polygon"},"geometry":{"type":"MultiPolygon","coordinates":[[[[79.702973,9.079983],[79.698009,9.089586],[79.701182,9.099189],[79.714122,9.103583],[79.7588,9.103583],[79.778575,9.098538],[79.799001,9.093329],[79.841645,9.077216],[79.882335,9.053778],[79.916433,9.021023],[79.900076,9.0244],[79.871267,9.03856],[79.85434,9.04149],[79.8803,9.012193],[79.900727,8.989081],[79.909679,8.973212],[79.885753,8.976223],[79.870128,8.988186],[79.859386,9.001207],[79.851329,9.007392],[79.840994,9.0126],[79.799815,9.048977],[79.779389,9.05801],[79.758962,9.067043],[79.743988,9.071072],[79.736013,9.073228],[79.714122,9.075629],[79.702973,9.079983]]],[[[79.880382,9.628607],[79.864919,9.651516],[79.840668,9.699408],[79.851736,9.716539],[79.854259,9.738471],[79.860525,9.756252],[79.882335,9.760891],[79.893891,9.757432],[79.894054,9.757392],[79.89503,9.748969],[79.891124,9.737209],[79.888438,9.723619],[79.888845,9.709906],[79.89031,9.698961],[79.890391,9.69831],[79.891287,9.696112],[79.894705,9.688178],[79.899262,9.68301],[79.902843,9.678941],[79.907074,9.677883],[79.926443,9.678941],[79.929698,9.675971],[79.931163,9.660956],[79.933604,9.654731],[79.944998,9.64761],[79.96046,9.641059],[79.973399,9.633775],[79.974457,9.631496],[79.977875,9.624335],[79.970958,9.617255],[79.957774,9.617174],[79.943614,9.621527],[79.933604,9.627753],[79.926524,9.629462],[79.908539,9.618964],[79.895844,9.617499],[79.880382,9.628607]]]]},"source_id":"natural_earth_10m_land","acquired_at":"2026-08-31T14:57:25.858632+00:00"},{"type":"Feature","feature_key":"fdf0b3f3af182fab","properties":{"featurecla":"Land","scalerank":0,"min_zoom":1,"geometry_kind":"polygon"},"geometry":{"type":"Polygon","coordinates":[[[79.784679,7.589789],[79.778575,7.602729],[79.782725,7.607123],[79.785818,7.607571],[79.792979,7.602729],[79.794607,7.620022],[79.799571,7.640082],[79.800792,7.649685],[79.802013,7.659329],[79.796397,7.674384],[79.788829,7.688178],[79.787364,7.697333],[79.785899,7.706488],[79.785981,7.743354],[79.76295,7.855455],[79.760265,7.868394],[79.748383,7.893012],[79.738292,7.944729],[79.721934,7.985541],[79.696788,8.098293],[79.696788,8.130316],[79.700857,8.128485],[79.701101,8.128201],[79.701427,8.127916],[79.701427,8.126899],[79.703624,8.123481],[79.707205,8.142076],[79.701915,8.201158],[79.696788,8.219062],[79.713227,8.229804],[79.72877,8.249701],[79.740001,8.272366],[79.744477,8.291409],[79.749034,8.30386],[79.778575,8.350043],[79.77825,8.34927],[79.763357,8.314399],[79.744477,8.281155],[79.748627,8.273057],[79.749685,8.271064],[79.757091,8.263739],[79.766775,8.259914],[79.778575,8.259996],[79.768891,8.232815],[79.7588,8.212877],[79.754405,8.209418],[79.749766,8.20893],[79.746104,8.206122],[79.744477,8.195502],[79.745372,8.171861],[79.744477,8.164496],[79.72755,8.110907],[79.728201,8.100979],[79.729503,8.081122],[79.747,8.060492],[79.751964,8.054633],[79.731944,8.013129],[79.763845,7.990139],[79.810232,7.986518],[79.833832,8.003079],[79.829356,8.020901],[79.821788,8.034857],[79.818858,8.040188],[79.815278,8.044582],[79.806407,8.05565],[79.796397,8.061998],[79.793468,8.072821],[79.827159,8.136542],[79.825857,8.148098],[79.821544,8.156643],[79.81658,8.163804],[79.813487,8.171291],[79.812673,8.183336],[79.813813,8.204088],[79.813487,8.212633],[79.813487,8.212877],[79.812918,8.214504],[79.810232,8.221625],[79.808604,8.22309],[79.806651,8.224921],[79.804698,8.22899],[79.806651,8.24018],[79.811371,8.249661],[79.824474,8.266669],[79.827159,8.277737],[79.829275,8.298651],[79.838634,8.340522],[79.848155,8.438178],[79.854259,8.449286],[79.86085,8.454779],[79.865896,8.461412],[79.868012,8.47602],[79.868012,8.517646],[79.87379,8.538072],[79.88738,8.551215],[79.903494,8.562079],[79.916515,8.575995],[79.918142,8.580919],[79.928071,8.611518],[79.929454,8.61282],[79.930186,8.613511],[79.932384,8.622463],[79.941661,8.642483],[79.950531,8.739814],[79.926443,8.801907],[79.928396,8.81269],[79.930186,8.88349],[79.930186,8.884426],[79.927745,8.908108],[79.924815,8.919745],[79.919607,8.928534],[79.915538,8.938544],[79.924815,8.943508],[79.938243,8.94599],[79.947113,8.948676],[80.005138,9.000556],[80.035411,9.015326],[80.048025,9.026272],[80.054698,9.050605],[80.066661,9.075629],[80.073497,9.110419],[80.105642,9.192857],[80.106781,9.197414],[80.109793,9.209459],[80.115977,9.233832],[80.115977,9.291938],[80.118175,9.300442],[80.116222,9.30622],[80.104503,9.308417],[80.076915,9.322659],[80.066173,9.332587],[80.059418,9.351386],[80.058279,9.354804],[80.053477,9.378241],[80.052989,9.391547],[80.064952,9.404039],[80.087087,9.414984],[80.111664,9.422756],[80.131847,9.425727],[80.14088,9.430325],[80.162852,9.459215],[80.165375,9.461086],[80.1692,9.464016],[80.176524,9.468329],[80.185557,9.471666],[80.197032,9.473456],[80.187511,9.490871],[80.181814,9.498521],[80.176036,9.506171],[80.161306,9.520575],[80.141856,9.53498],[80.067882,9.57803],[80.052989,9.596381],[80.085216,9.595364],[80.115733,9.583238],[80.175955,9.54857],[80.233409,9.534247],[80.248546,9.524644],[80.272227,9.504136],[80.278087,9.493313],[80.26588,9.487128],[80.268565,9.480292],[80.272146,9.473456],[80.26588,9.466702],[80.286876,9.452704],[80.336274,9.464667],[80.426606,9.50019],[80.450938,9.49787],[80.504242,9.483303],[80.567149,9.455227],[80.614594,9.446194],[80.614757,9.446194],[80.546723,9.492418],[80.523285,9.50316],[80.502452,9.507636],[80.49936,9.50906],[80.496349,9.510484],[80.478282,9.524075],[80.471446,9.528062],[80.46461,9.52912],[80.456391,9.528713],[80.444021,9.528062],[80.436209,9.525092],[80.435069,9.523383],[80.432872,9.519761],[80.428966,9.517768],[80.415701,9.527493],[80.410411,9.528388],[80.37794,9.527533],[80.368663,9.530219],[80.297537,9.591254],[80.266938,9.610826],[80.256033,9.615587],[80.2046,9.637885],[80.186046,9.648505],[80.173595,9.648668],[80.175955,9.624335],[80.182872,9.617174],[80.193614,9.609076],[80.199962,9.599189],[80.193614,9.586412],[80.186046,9.584133],[80.178722,9.588039],[80.172048,9.593573],[80.152843,9.603461],[80.115489,9.635728],[80.094005,9.644843],[80.094086,9.644761],[80.104991,9.63288],[80.124685,9.616034],[80.13559,9.603827],[80.111339,9.608466],[80.087413,9.618354],[80.039317,9.644843],[80.000987,9.674709],[79.978201,9.682685],[79.975922,9.684068],[79.967296,9.689602],[79.959239,9.692816],[79.958018,9.685736],[79.947032,9.693183],[79.942882,9.702826],[79.940929,9.714342],[79.937022,9.727362],[79.930431,9.738471],[79.926524,9.743516],[79.91627,9.756781],[79.909679,9.768297],[79.931326,9.779039],[79.970714,9.815131],[79.988455,9.822943],[80.066661,9.816107],[80.107432,9.820624],[80.122325,9.818915],[80.128184,9.805569],[80.127208,9.784613],[80.130138,9.77733],[80.138682,9.774563],[80.146983,9.773383],[80.170909,9.767279],[80.175955,9.764594],[80.180431,9.755805],[80.191173,9.756171],[80.199636,9.758734],[80.202891,9.759711],[80.207774,9.760403],[80.211192,9.760891],[80.219005,9.756374],[80.222341,9.754462],[80.250336,9.72427],[80.338552,9.629218],[80.36964,9.609849],[80.441742,9.57689],[80.444021,9.575914],[80.444021,9.583319],[80.407725,9.601508],[80.319835,9.672756],[80.247813,9.755072],[80.211192,9.774522],[80.153819,9.787991],[80.138682,9.798733],[80.136729,9.81391],[80.157725,9.822943],[80.164561,9.824083],[80.185395,9.827541],[80.226817,9.829576],[80.246755,9.825873],[80.26059,9.81623],[80.269786,9.783515],[80.278982,9.769843],[80.409923,9.617499],[80.42921,9.603461],[80.468272,9.581366],[80.744395,9.359687],[80.745453,9.357896],[80.752452,9.346259],[80.763682,9.332424],[80.785167,9.312405],[80.798839,9.294867],[80.786632,9.28852],[80.779796,9.291571],[80.778982,9.291938],[80.778819,9.291978],[80.768321,9.305406],[80.762543,9.308336],[80.762462,9.308417],[80.744395,9.311347],[80.736501,9.308987],[80.740408,9.301011],[80.74171,9.298489],[80.79363,9.250556],[80.813894,9.239529],[80.805919,9.251899],[80.801036,9.26321],[80.803559,9.271633],[80.817393,9.274848],[80.823904,9.270494],[80.834483,9.239488],[80.844168,9.220404],[80.882172,9.145209],[80.874522,9.147976],[80.853363,9.155748],[80.840099,9.155992],[80.834483,9.14175],[80.842296,9.138129],[80.858572,9.135484],[80.873057,9.126451],[80.87322,9.12523],[80.875336,9.103583],[80.875499,9.103583],[80.882172,9.103583],[80.885509,9.10932],[80.88852,9.111802],[80.891938,9.11343],[80.896495,9.116604],[80.901622,9.096666],[80.902192,9.094184],[80.916352,9.062161],[80.935313,9.033433],[80.9546,9.020982],[80.956065,9.019802],[80.958344,9.01789],[80.958263,9.010891],[80.953624,9.003852],[80.944347,9.000556],[80.941661,9.003485],[80.930675,9.020982],[80.918712,9.027248],[80.891287,9.034247],[80.875336,9.04149],[80.88266,9.031399],[80.886729,9.025784],[80.922862,8.992255],[80.923188,8.973212],[80.935069,8.964911],[80.934988,8.96483],[80.924327,8.955024],[80.914887,8.943915],[80.930675,8.931627],[80.947602,8.932929],[80.961436,8.945746],[80.97169,8.963568],[80.978363,8.980048],[80.978526,8.979967],[81.014659,8.936713],[81.046723,8.882148],[81.059825,8.868638],[81.078136,8.863349],[81.092784,8.85163],[81.1,8.834286610687025],[81.1,7.5],[79.79704236180505,7.5],[79.784679,7.589789]]]},"source_id":"natural_earth_10m_land","acquired_at":"2026-08-31T14:57:25.858632+00:00"},{"type":"Feature","feature_key":"6b61cd138d6aa929","properties":{"featurecla":null,"scalerank":null,"min_zoom":null,"geometry_kind":"polygon"},"geometry":{"type":"MultiPolygon","coordinates":[[[[79.910899,8.95303],[79.915863,8.946845],[79.907237,8.935696],[79.910899,8.95303]]],[[[79.66155,9.07392],[79.664724,9.070217],[79.651378,9.070217],[79.644216,9.070217],[79.641124,9.067694],[79.631196,9.067084],[79.643647,9.074856],[79.66155,9.07392]]],[[[79.553966,9.090969],[79.55421,9.085395],[79.553315,9.084459],[79.551443,9.093126],[79.553966,9.090969]]],[[[79.077566,9.199083],[79.088145,9.194322],[79.083018,9.191026],[79.074392,9.19481],[79.066905,9.198513],[79.061371,9.196072],[79.058604,9.200629],[79.063813,9.204861],[79.0713,9.200426],[79.077566,9.199083]]],[[[79.990001,9.299709],[79.992686,9.295071],[79.991303,9.288275],[79.985118,9.281033],[79.980072,9.277655],[79.971609,9.292873],[79.97755,9.296291],[79.98349,9.304755],[79.990001,9.299709]]],[[[79.849539,9.612942],[79.859548,9.605496],[79.863455,9.591783],[79.860769,9.57095],[79.857677,9.565985],[79.848643,9.564724],[79.815847,9.571194],[79.809418,9.580146],[79.81072,9.61754],[79.814464,9.622789],[79.819672,9.617458],[79.826834,9.59927],[79.833995,9.593166],[79.842133,9.59394],[79.846365,9.597317],[79.840668,9.607408],[79.841075,9.613023],[79.849539,9.612942]]]]},"source_id":"natural_earth_10m_land","acquired_at":"2026-08-31T14:57:25.858632+00:00"}]}