{"type":"FeatureCollection","features":[{"type":"Feature","feature_key":"1306","properties":{"line_id":1306,"line_name":"Sri Lanka - India","line_type":"Treaty","mrgid_sov1":2195,"mrgid_ter1":2195,"territory1":"Sri Lanka","sovereign1":"Sri Lanka","mrgid_ter2":2128,"territory2":"India","mrgid_sov2":2128,"sovereign2":"India","mrgid_eez1":8346,"eez1":"Sri Lankan Exclusive Economic Zone","mrgid_eez2":8480,"eez2":"Indian Exclusive Economic Zone","source1":"Agreement between Sri Lanka and India on the Boundary in Historic Waters between the two Countries and Related Matters 26 and 28 June 1974","url1":"https://www.marineregions.org/documents/LKA-IND1974BW.PDF","source2":"Agreement between Sri Lanka and India on the Boundary in Historic Waters between the two Countries and Related Matters 26 and 28 June 1974","url2":"https://www.marineregions.org/documents/v1049.pdf","source3":null,"url3":null,"origin":"Database","doc_date":"1974-06-28Z","mrgid_jreg":null,"joint_reg":null,"length_km":157.93,"geofence_class":"IMBL_HISTORIC_WATERS","treaty":"Agreement between Sri Lanka and India on the Boundary in Historic Waters between the two Countries and Related Matters 26 and 28 June 1974","treaty_date":"1974-06-28"},"geometry":{"type":"MultiLineString","coordinates":[[[80.05,10.08333333],[79.58333333,9.95],[79.37666667,9.66916667],[79.51166667,9.36333333],[79.53333333,9.21666667],[79.53333333,9.1]]]},"source_id":"marine_regions_imbl","acquired_at":"2026-08-30T19:03:32.653863+00:00"}]}