{"type":"FeatureCollection","features":[{"type":"Feature","feature_key":"TN0301a","properties":{"OBJECTID":541,"SECTOR_NAM":"SOUTH TAMILNADU","SECTOR_ID":"SEC006","DIST_NAME":"Thoothukkudi","LC_NAME":"Manappad Pt","LC_UNIQUE_":"TN0301a","LONGITUDE":78.06,"LATITUDE":8.37,"FORECAST_I":0,"UPDATED_DA":null,"FORECAST_D":null,"VALIDITY_D":null,"DIRECTION":"","BEARING":0,"DISTANCE_F":0,"DISTANCE_T":0,"DEPTH_FROM":0,"DEPTH_TO":0,"LONGITUDE_":0,"LONGITUDE1":0,"LONGITUD_1":0,"LONGITUD_2":"","LATITUDE_D":0,"LATITUDE_M":0,"LATITUDE_S":0,"LATITUDE_1":"","STATUS":"NO","MARINE_FIS":1},"geometry":{"type":"Point","coordinates":[78.05999756,8.36999989]},"source_id":"incois_wfs","acquired_at":"2026-08-30T18:51:42.205191+00:00"},{"type":"Feature","feature_key":"TN0312b","properties":{"OBJECTID":542,"SECTOR_NAM":"SOUTH TAMILNADU","SECTOR_ID":"SEC006","DIST_NAME":"Thoothukkudi","LC_NAME":"Kulasekharapattinam","LC_UNIQUE_":"TN0312b","LONGITUDE":78.06,"LATITUDE":8.4,"FORECAST_I":0,"UPDATED_DA":null,"FORECAST_D":null,"VALIDITY_D":null,"DIRECTION":"","BEARING":0,"DISTANCE_F":0,"DISTANCE_T":0,"DEPTH_FROM":0,"DEPTH_TO":0,"LONGITUDE_":0,"LONGITUDE1":0,"LONGITUD_1":0,"LONGITUD_2":"","LATITUDE_D":0,"LATITUDE_M":0,"LATITUDE_S":0,"LATITUDE_1":"","STATUS":"NO","MARINE_FIS":1},"geometry":{"type":"Point","coordinates":[78.05999756,8.39999962]},"source_id":"incois_wfs","acquired_at":"2026-08-30T18:51:42.205191+00:00"},{"type":"Feature","feature_key":"TN0313b","properties":{"OBJECTID":543,"SECTOR_NAM":"SOUTH TAMILNADU","SECTOR_ID":"SEC006","DIST_NAME":"Thoothukkudi","LC_NAME":"Kallamozhi","LC_UNIQUE_":"TN0313b","LONGITUDE":78.08,"LATITUDE":8.44,"FORECAST_I":0,"UPDATED_DA":null,"FORECAST_D":null,"VALIDITY_D":null,"DIRECTION":"","BEARING":0,"DISTANCE_F":0,"DISTANCE_T":0,"DEPTH_FROM":0,"DEPTH_TO":0,"LONGITUDE_":0,"LONGITUDE1":0,"LONGITUD_1":0,"LONGITUD_2":"","LATITUDE_D":0,"LATITUDE_M":0,"LATITUDE_S":0,"LATITUDE_1":"","STATUS":"NO","MARINE_FIS":1},"geometry":{"type":"Point","coordinates":[78.08000183,8.43999958]},"source_id":"incois_wfs","acquired_at":"2026-08-30T18:51:42.205191+00:00"},{"type":"Feature","feature_key":"TN0314b","properties":{"OBJECTID":544,"SECTOR_NAM":"SOUTH TAMILNADU","SECTOR_ID":"SEC006","DIST_NAME":"Thoothukkudi","LC_NAME":"Alanthalai","LC_UNIQUE_":"TN0314b","LONGITUDE":78.1,"LATITUDE":8.46,"FORECAST_I":0,"UPDATED_DA":null,"FORECAST_D":null,"VALIDITY_D":null,"DIRECTION":"","BEARING":0,"DISTANCE_F":0,"DISTANCE_T":0,"DEPTH_FROM":0,"DEPTH_TO":0,"LONGITUDE_":0,"LONGITUDE1":0,"LONGITUD_1":0,"LONGITUD_2":"","LATITUDE_D":0,"LATITUDE_M":0,"LATITUDE_S":0,"LATITUDE_1":"","STATUS":"NO","MARINE_FIS":1},"geometry":{"type":"Point","coordinates":[78.09999847,8.46000004]},"source_id":"incois_wfs","acquired_at":"2026-08-30T18:51:42.205191+00:00"},{"type":"Feature","feature_key":"TN0315b","properties":{"OBJECTID":545,"SECTOR_NAM":"SOUTH TAMILNADU","SECTOR_ID":"SEC006","DIST_NAME":"Thoothukkudi","LC_NAME":"Amalinagar","LC_UNIQUE_":"TN0315b","LONGITUDE":78.12,"LATITUDE":8.49,"FORECAST_I":0,"UPDATED_DA":null,"FORECAST_D":null,"VALIDITY_D":null,"DIRECTION":"","BEARING":0,"DISTANCE_F":0,"DISTANCE_T":0,"DEPTH_FROM":0,"DEPTH_TO":0,"LONGITUDE_":0,"LONGITUDE1":0,"LONGITUD_1":0,"LONGITUD_2":"","LATITUDE_D":0,"LATITUDE_M":0,"LATITUDE_S":0,"LATITUDE_1":"","STATUS":"NO","MARINE_FIS":1},"geometry":{"type":"Point","coordinates":[78.12000275,8.48999977]},"source_id":"incois_wfs","acquired_at":"2026-08-30T18:51:42.205191+00:00"},{"type":"Feature","feature_key":"TN0316b","properties":{"OBJECTID":546,"SECTOR_NAM":"SOUTH TAMILNADU","SECTOR_ID":"SEC006","DIST_NAME":"Thoothukkudi","LC_NAME":"Jeevanagar","LC_UNIQUE_":"TN0316b","LONGITUDE":78.13,"LATITUDE":8.5,"FORECAST_I":0,"UPDATED_DA":null,"FORECAST_D":null,"VALIDITY_D":null,"DIRECTION":"","BEARING":0,"DISTANCE_F":0,"DISTANCE_T":0,"DEPTH_FROM":0,"DEPTH_TO":0,"LONGITUDE_":0,"LONGITUDE1":0,"LONGITUD_1":0,"LONGITUD_2":"","LATITUDE_D":0,"LATITUDE_M":0,"LATITUDE_S":0,"LATITUDE_1":"","STATUS":"NO","MARINE_FIS":1},"geometry":{"type":"Point","coordinates":[78.12999725,8.5]},"source_id":"incois_wfs","acquired_at":"2026-08-30T18:51:42.205191+00:00"},{"type":"Feature","feature_key":"TN0317b","properties":{"OBJECTID":547,"SECTOR_NAM":"SOUTH TAMILNADU","SECTOR_ID":"SEC006","DIST_NAME":"Thoothukkudi","LC_NAME":"Veerapandiyapattinam","LC_UNIQUE_":"TN0317b","LONGITUDE":78.12,"LATITUDE":8.52,"FORECAST_I":0,"UPDATED_DA":null,"FORECAST_D":null,"VALIDITY_D":null,"DIRECTION":"","BEARING":0,"DISTANCE_F":0,"DISTANCE_T":0,"DEPTH_FROM":0,"DEPTH_TO":0,"LONGITUDE_":0,"LONGITUDE1":0,"LONGITUD_1":0,"LONGITUD_2":"","LATITUDE_D":0,"LATITUDE_M":0,"LATITUDE_S":0,"LATITUDE_1":"","STATUS":"NO","MARINE_FIS":1},"geometry":{"type":"Point","coordinates":[78.12000275,8.52000046]},"source_id":"incois_wfs","acquired_at":"2026-08-30T18:51:42.205191+00:00"},{"type":"Feature","feature_key":"TN0318b","properties":{"OBJECTID":548,"SECTOR_NAM":"SOUTH TAMILNADU","SECTOR_ID":"SEC006","DIST_NAME":"Thoothukkudi","LC_NAME":"Singhithurai","LC_UNIQUE_":"TN0318b","LONGITUDE":78.13,"LATITUDE":8.57,"FORECAST_I":0,"UPDATED_DA":null,"FORECAST_D":null,"VALIDITY_D":null,"DIRECTION":"","BEARING":0,"DISTANCE_F":0,"DISTANCE_T":0,"DEPTH_FROM":0,"DEPTH_TO":0,"LONGITUDE_":0,"LONGITUDE1":0,"LONGITUD_1":0,"LONGITUD_2":"","LATITUDE_D":0,"LATITUDE_M":0,"LATITUDE_S":0,"LATITUDE_1":"","STATUS":"NO","MARINE_FIS":1},"geometry":{"type":"Point","coordinates":[78.12999725,8.56999969]},"source_id":"incois_wfs","acquired_at":"2026-08-30T18:51:42.205191+00:00"},{"type":"Feature","feature_key":"TN0319b","properties":{"OBJECTID":549,"SECTOR_NAM":"SOUTH TAMILNADU","SECTOR_ID":"SEC006","DIST_NAME":"Thoothukkudi","LC_NAME":"Kombuthurai Madhakoil","LC_UNIQUE_":"TN0319b","LONGITUDE":78.14,"LATITUDE":8.58,"FORECAST_I":0,"UPDATED_DA":null,"FORECAST_D":null,"VALIDITY_D":null,"DIRECTION":"","BEARING":0,"DISTANCE_F":0,"DISTANCE_T":0,"DEPTH_FROM":0,"DEPTH_TO":0,"LONGITUDE_":0,"LONGITUDE1":0,"LONGITUD_1":0,"LONGITUD_2":"","LATITUDE_D":0,"LATITUDE_M":0,"LATITUDE_S":0,"LATITUDE_1":"","STATUS":"NO","MARINE_FIS":1},"geometry":{"type":"Point","coordinates":[78.13999939,8.57999992]},"source_id":"incois_wfs","acquired_at":"2026-08-30T18:51:42.205191+00:00"},{"type":"Feature","feature_key":"TN0320b","properties":{"OBJECTID":550,"SECTOR_NAM":"SOUTH TAMILNADU","SECTOR_ID":"SEC006","DIST_NAME":"Thoothukkudi","LC_NAME":"Punnakkayal","LC_UNIQUE_":"TN0320b","LONGITUDE":78.13,"LATITUDE":8.64,"FORECAST_I":0,"UPDATED_DA":null,"FORECAST_D":null,"VALIDITY_D":null,"DIRECTION":"","BEARING":0,"DISTANCE_F":0,"DISTANCE_T":0,"DEPTH_FROM":0,"DEPTH_TO":0,"LONGITUDE_":0,"LONGITUDE1":0,"LONGITUD_1":0,"LONGITUD_2":"","LATITUDE_D":0,"LATITUDE_M":0,"LATITUDE_S":0,"LATITUDE_1":"","STATUS":"NO","MARINE_FIS":1},"geometry":{"type":"Point","coordinates":[78.12999725,8.64000034]},"source_id":"incois_wfs","acquired_at":"2026-08-30T18:51:42.205191+00:00"},{"type":"Feature","feature_key":"TN0321b","properties":{"OBJECTID":551,"SECTOR_NAM":"SOUTH TAMILNADU","SECTOR_ID":"SEC006","DIST_NAME":"Thoothukkudi","LC_NAME":"Ratchanyapuram","LC_UNIQUE_":"TN0321b","LONGITUDE":78.13,"LATITUDE":8.67,"FORECAST_I":0,"UPDATED_DA":null,"FORECAST_D":null,"VALIDITY_D":null,"DIRECTION":"","BEARING":0,"DISTANCE_F":0,"DISTANCE_T":0,"DEPTH_FROM":0,"DEPTH_TO":0,"LONGITUDE_":0,"LONGITUDE1":0,"LONGITUD_1":0,"LONGITUD_2":"","LATITUDE_D":0,"LATITUDE_M":0,"LATITUDE_S":0,"LATITUDE_1":"","STATUS":"NO","MARINE_FIS":1},"geometry":{"type":"Point","coordinates":[78.12999725,8.67000008]},"source_id":"incois_wfs","acquired_at":"2026-08-30T18:51:42.205191+00:00"},{"type":"Feature","feature_key":"TN0306a","properties":{"OBJECTID":552,"SECTOR_NAM":"SOUTH TAMILNADU","SECTOR_ID":"SEC006","DIST_NAME":"Thoothukkudi","LC_NAME":"Tuticorin","LC_UNIQUE_":"TN0306a","LONGITUDE":78.17,"LATITUDE":8.74,"FORECAST_I":0,"UPDATED_DA":null,"FORECAST_D":null,"VALIDITY_D":null,"DIRECTION":"","BEARING":0,"DISTANCE_F":0,"DISTANCE_T":0,"DEPTH_FROM":0,"DEPTH_TO":0,"LONGITUDE_":0,"LONGITUDE1":0,"LONGITUD_1":0,"LONGITUD_2":"","LATITUDE_D":0,"LATITUDE_M":0,"LATITUDE_S":0,"LATITUDE_1":"","STATUS":"NO","MARINE_FIS":1},"geometry":{"type":"Point","coordinates":[78.16999817,8.73999977]},"source_id":"incois_wfs","acquired_at":"2026-08-30T18:51:42.205191+00:00"},{"type":"Feature","feature_key":"TN0305a","properties":{"OBJECTID":553,"SECTOR_NAM":"SOUTH TAMILNADU","SECTOR_ID":"SEC006","DIST_NAME":"Thoothukkudi","LC_NAME":"Pandyan","LC_UNIQUE_":"TN0305a","LONGITUDE":78.2,"LATITUDE":8.78,"FORECAST_I":0,"UPDATED_DA":null,"FORECAST_D":null,"VALIDITY_D":null,"DIRECTION":"","BEARING":0,"DISTANCE_F":0,"DISTANCE_T":0,"DEPTH_FROM":0,"DEPTH_TO":0,"LONGITUDE_":0,"LONGITUDE1":0,"LONGITUD_1":0,"LONGITUD_2":"","LATITUDE_D":0,"LATITUDE_M":0,"LATITUDE_S":0,"LATITUDE_1":"","STATUS":"NO","MARINE_FIS":1},"geometry":{"type":"Point","coordinates":[78.19999695,8.77999973]},"source_id":"incois_wfs","acquired_at":"2026-08-30T18:51:42.205191+00:00"},{"type":"Feature","feature_key":"TN0322b","properties":{"OBJECTID":554,"SECTOR_NAM":"SOUTH TAMILNADU","SECTOR_ID":"SEC006","DIST_NAME":"Thoothukkudi","LC_NAME":"Inico nagar","LC_UNIQUE_":"TN0322b","LONGITUDE":78.16,"LATITUDE":8.79,"FORECAST_I":0,"UPDATED_DA":null,"FORECAST_D":null,"VALIDITY_D":null,"DIRECTION":"","BEARING":0,"DISTANCE_F":0,"DISTANCE_T":0,"DEPTH_FROM":0,"DEPTH_TO":0,"LONGITUDE_":0,"LONGITUDE1":0,"LONGITUD_1":0,"LONGITUD_2":"","LATITUDE_D":0,"LATITUDE_M":0,"LATITUDE_S":0,"LATITUDE_1":"","STATUS":"NO","MARINE_FIS":1},"geometry":{"type":"Point","coordinates":[78.16000366,8.78999996]},"source_id":"incois_wfs","acquired_at":"2026-08-30T18:51:42.205191+00:00"},{"type":"Feature","feature_key":"TN0323b","properties":{"OBJECTID":555,"SECTOR_NAM":"SOUTH TAMILNADU","SECTOR_ID":"SEC006","DIST_NAME":"Thoothukkudi","LC_NAME":"Thoothukudi","LC_UNIQUE_":"TN0323b","LONGITUDE":78.16,"LATITUDE":8.79,"FORECAST_I":0,"UPDATED_DA":null,"FORECAST_D":null,"VALIDITY_D":null,"DIRECTION":"","BEARING":0,"DISTANCE_F":0,"DISTANCE_T":0,"DEPTH_FROM":0,"DEPTH_TO":0,"LONGITUDE_":0,"LONGITUDE1":0,"LONGITUD_1":0,"LONGITUD_2":"","LATITUDE_D":0,"LATITUDE_M":0,"LATITUDE_S":0,"LATITUDE_1":"","STATUS":"NO","MARINE_FIS":1},"geometry":{"type":"Point","coordinates":[78.16000366,8.78999996]},"source_id":"incois_wfs","acquired_at":"2026-08-30T18:51:42.205191+00:00"},{"type":"Feature","feature_key":"TN0324b","properties":{"OBJECTID":556,"SECTOR_NAM":"SOUTH TAMILNADU","SECTOR_ID":"SEC006","DIST_NAME":"Thoothukkudi","LC_NAME":"Therespuram","LC_UNIQUE_":"TN0324b","LONGITUDE":78.16,"LATITUDE":8.81,"FORECAST_I":0,"UPDATED_DA":null,"FORECAST_D":null,"VALIDITY_D":null,"DIRECTION":"","BEARING":0,"DISTANCE_F":0,"DISTANCE_T":0,"DEPTH_FROM":0,"DEPTH_TO":0,"LONGITUDE_":0,"LONGITUDE1":0,"LONGITUD_1":0,"LONGITUD_2":"","LATITUDE_D":0,"LATITUDE_M":0,"LATITUDE_S":0,"LATITUDE_1":"","STATUS":"NO","MARINE_FIS":1},"geometry":{"type":"Point","coordinates":[78.16000366,8.81000042]},"source_id":"incois_wfs","acquired_at":"2026-08-30T18:51:42.205191+00:00"},{"type":"Feature","feature_key":"TN0325b","properties":{"OBJECTID":557,"SECTOR_NAM":"SOUTH TAMILNADU","SECTOR_ID":"SEC006","DIST_NAME":"Thoothukkudi","LC_NAME":"Thalamuthunagar","LC_UNIQUE_":"TN0325b","LONGITUDE":78.17,"LATITUDE":8.83,"FORECAST_I":0,"UPDATED_DA":null,"FORECAST_D":null,"VALIDITY_D":null,"DIRECTION":"","BEARING":0,"DISTANCE_F":0,"DISTANCE_T":0,"DEPTH_FROM":0,"DEPTH_TO":0,"LONGITUDE_":0,"LONGITUDE1":0,"LONGITUD_1":0,"LONGITUD_2":"","LATITUDE_D":0,"LATITUDE_M":0,"LATITUDE_S":0,"LATITUDE_1":"","STATUS":"NO","MARINE_FIS":1},"geometry":{"type":"Point","coordinates":[78.16999817,8.82999992]},"source_id":"incois_wfs","acquired_at":"2026-08-30T18:51:42.205191+00:00"},{"type":"Feature","feature_key":"TN0326b","properties":{"OBJECTID":558,"SECTOR_NAM":"SOUTH TAMILNADU","SECTOR_ID":"SEC006","DIST_NAME":"Thoothukkudi","LC_NAME":"Vellapatti","LC_UNIQUE_":"TN0326b","LONGITUDE":78.17,"LATITUDE":8.86,"FORECAST_I":0,"UPDATED_DA":null,"FORECAST_D":null,"VALIDITY_D":null,"DIRECTION":"","BEARING":0,"DISTANCE_F":0,"DISTANCE_T":0,"DEPTH_FROM":0,"DEPTH_TO":0,"LONGITUDE_":0,"LONGITUDE1":0,"LONGITUD_1":0,"LONGITUD_2":"","LATITUDE_D":0,"LATITUDE_M":0,"LATITUDE_S":0,"LATITUDE_1":"","STATUS":"NO","MARINE_FIS":1},"geometry":{"type":"Point","coordinates":[78.16999817,8.85999966]},"source_id":"incois_wfs","acquired_at":"2026-08-30T18:51:42.205191+00:00"},{"type":"Feature","feature_key":"TN0327b","properties":{"OBJECTID":559,"SECTOR_NAM":"SOUTH TAMILNADU","SECTOR_ID":"SEC006","DIST_NAME":"Thoothukkudi","LC_NAME":"Tharuvaikulam","LC_UNIQUE_":"TN0327b","LONGITUDE":78.17,"LATITUDE":8.89,"FORECAST_I":0,"UPDATED_DA":null,"FORECAST_D":null,"VALIDITY_D":null,"DIRECTION":"","BEARING":0,"DISTANCE_F":0,"DISTANCE_T":0,"DEPTH_FROM":0,"DEPTH_TO":0,"LONGITUDE_":0,"LONGITUDE1":0,"LONGITUD_1":0,"LONGITUD_2":"","LATITUDE_D":0,"LATITUDE_M":0,"LATITUDE_S":0,"LATITUDE_1":"","STATUS":"NO","MARINE_FIS":1},"geometry":{"type":"Point","coordinates":[78.16999817,8.89000034]},"source_id":"incois_wfs","acquired_at":"2026-08-30T18:51:42.205191+00:00"},{"type":"Feature","feature_key":"TN0307a","properties":{"OBJECTID":560,"SECTOR_NAM":"SOUTH TAMILNADU","SECTOR_ID":"SEC006","DIST_NAME":"Thoothukkudi","LC_NAME":"Pattanamarudur","LC_UNIQUE_":"TN0307a","LONGITUDE":78.18,"LATITUDE":8.92,"FORECAST_I":0,"UPDATED_DA":null,"FORECAST_D":null,"VALIDITY_D":null,"DIRECTION":"","BEARING":0,"DISTANCE_F":0,"DISTANCE_T":0,"DEPTH_FROM":0,"DEPTH_TO":0,"LONGITUDE_":0,"LONGITUDE1":0,"LONGITUD_1":0,"LONGITUD_2":"","LATITUDE_D":0,"LATITUDE_M":0,"LATITUDE_S":0,"LATITUDE_1":"","STATUS":"NO","MARINE_FIS":1},"geometry":{"type":"Point","coordinates":[78.18000031,8.92000008]},"source_id":"incois_wfs","acquired_at":"2026-08-30T18:51:42.205191+00:00"},{"type":"Feature","feature_key":"TN0308a","properties":{"OBJECTID":561,"SECTOR_NAM":"SOUTH TAMILNADU","SECTOR_ID":"SEC006","DIST_NAME":"Thoothukkudi","LC_NAME":"Veppalodai","LC_UNIQUE_":"TN0308a","LONGITUDE":78.21,"LATITUDE":8.96,"FORECAST_I":0,"UPDATED_DA":null,"FORECAST_D":null,"VALIDITY_D":null,"DIRECTION":"","BEARING":0,"DISTANCE_F":0,"DISTANCE_T":0,"DEPTH_FROM":0,"DEPTH_TO":0,"LONGITUDE_":0,"LONGITUDE1":0,"LONGITUD_1":0,"LONGITUD_2":"","LATITUDE_D":0,"LATITUDE_M":0,"LATITUDE_S":0,"LATITUDE_1":"","STATUS":"NO","MARINE_FIS":1},"geometry":{"type":"Point","coordinates":[78.20999908,8.96000004]},"source_id":"incois_wfs","acquired_at":"2026-08-30T18:51:42.205191+00:00"},{"type":"Feature","feature_key":"TN0328b","properties":{"OBJECTID":562,"SECTOR_NAM":"SOUTH TAMILNADU","SECTOR_ID":"SEC006","DIST_NAME":"Thoothukkudi","LC_NAME":"Sippikulam","LC_UNIQUE_":"TN0328b","LONGITUDE":78.25,"LATITUDE":8.99,"FORECAST_I":0,"UPDATED_DA":null,"FORECAST_D":null,"VALIDITY_D":null,"DIRECTION":"","BEARING":0,"DISTANCE_F":0,"DISTANCE_T":0,"DEPTH_FROM":0,"DEPTH_TO":0,"LONGITUDE_":0,"LONGITUDE1":0,"LONGITUD_1":0,"LONGITUD_2":"","LATITUDE_D":0,"LATITUDE_M":0,"LATITUDE_S":0,"LATITUDE_1":"","STATUS":"NO","MARINE_FIS":1},"geometry":{"type":"Point","coordinates":[78.25,8.98999977]},"source_id":"incois_wfs","acquired_at":"2026-08-30T18:51:42.205191+00:00"},{"type":"Feature","feature_key":"TN0329b","properties":{"OBJECTID":563,"SECTOR_NAM":"SOUTH TAMILNADU","SECTOR_ID":"SEC006","DIST_NAME":"Thoothukkudi","LC_NAME":"Keezhavaippar","LC_UNIQUE_":"TN0329b","LONGITUDE":78.26,"LATITUDE":9,"FORECAST_I":0,"UPDATED_DA":null,"FORECAST_D":null,"VALIDITY_D":null,"DIRECTION":"","BEARING":0,"DISTANCE_F":0,"DISTANCE_T":0,"DEPTH_FROM":0,"DEPTH_TO":0,"LONGITUDE_":0,"LONGITUDE1":0,"LONGITUD_1":0,"LONGITUD_2":"","LATITUDE_D":0,"LATITUDE_M":0,"LATITUDE_S":0,"LATITUDE_1":"","STATUS":"NO","MARINE_FIS":1},"geometry":{"type":"Point","coordinates":[78.26000214,9]},"source_id":"incois_wfs","acquired_at":"2026-08-30T18:51:42.205191+00:00"},{"type":"Feature","feature_key":"TN0330b","properties":{"OBJECTID":564,"SECTOR_NAM":"SOUTH TAMILNADU","SECTOR_ID":"SEC006","DIST_NAME":"Thoothukkudi","LC_NAME":"Periasamypuram","LC_UNIQUE_":"TN0330b","LONGITUDE":78.33,"LATITUDE":9.04,"FORECAST_I":0,"UPDATED_DA":null,"FORECAST_D":null,"VALIDITY_D":null,"DIRECTION":"","BEARING":0,"DISTANCE_F":0,"DISTANCE_T":0,"DEPTH_FROM":0,"DEPTH_TO":0,"LONGITUDE_":0,"LONGITUDE1":0,"LONGITUD_1":0,"LONGITUD_2":"","LATITUDE_D":0,"LATITUDE_M":0,"LATITUDE_S":0,"LATITUDE_1":"","STATUS":"NO","MARINE_FIS":1},"geometry":{"type":"Point","coordinates":[78.33000183,9.03999996]},"source_id":"incois_wfs","acquired_at":"2026-08-30T18:51:42.205191+00:00"},{"type":"Feature","feature_key":"TN0310a","properties":{"OBJECTID":565,"SECTOR_NAM":"SOUTH TAMILNADU","SECTOR_ID":"SEC006","DIST_NAME":"Thoothukkudi","LC_NAME":"Vembar","LC_UNIQUE_":"TN0310a","LONGITUDE":78.36,"LATITUDE":9.08,"FORECAST_I":0,"UPDATED_DA":null,"FORECAST_D":null,"VALIDITY_D":null,"DIRECTION":"","BEARING":0,"DISTANCE_F":0,"DISTANCE_T":0,"DEPTH_FROM":0,"DEPTH_TO":0,"LONGITUDE_":0,"LONGITUDE1":0,"LONGITUD_1":0,"LONGITUD_2":"","LATITUDE_D":0,"LATITUDE_M":0,"LATITUDE_S":0,"LATITUDE_1":"","STATUS":"NO","MARINE_FIS":1},"geometry":{"type":"Point","coordinates":[78.36000061,9.07999992]},"source_id":"incois_wfs","acquired_at":"2026-08-30T18:51:42.205191+00:00"},{"type":"Feature","feature_key":"TN0422b","properties":{"OBJECTID":566,"SECTOR_NAM":"SOUTH TAMILNADU","SECTOR_ID":"SEC006","DIST_NAME":"Thoothukkudi","LC_NAME":"Rojma Nagar","LC_UNIQUE_":"TN0422b","LONGITUDE":78.39,"LATITUDE":9.09,"FORECAST_I":0,"UPDATED_DA":null,"FORECAST_D":null,"VALIDITY_D":null,"DIRECTION":"","BEARING":0,"DISTANCE_F":0,"DISTANCE_T":0,"DEPTH_FROM":0,"DEPTH_TO":0,"LONGITUDE_":0,"LONGITUDE1":0,"LONGITUD_1":0,"LONGITUD_2":"","LATITUDE_D":0,"LATITUDE_M":0,"LATITUDE_S":0,"LATITUDE_1":"","STATUS":"NO","MARINE_FIS":1},"geometry":{"type":"Point","coordinates":[78.38999939,9.09000015]},"source_id":"incois_wfs","acquired_at":"2026-08-30T18:51:42.205191+00:00"},{"type":"Feature","feature_key":"TN0423b","properties":{"OBJECTID":567,"SECTOR_NAM":"SOUTH TAMILNADU","SECTOR_ID":"SEC006","DIST_NAME":"Ramanathapuram","LC_NAME":"Terku Mookkaiyur","LC_UNIQUE_":"TN0423b","LONGITUDE":78.48,"LATITUDE":9.13,"FORECAST_I":0,"UPDATED_DA":null,"FORECAST_D":null,"VALIDITY_D":null,"DIRECTION":"","BEARING":0,"DISTANCE_F":0,"DISTANCE_T":0,"DEPTH_FROM":0,"DEPTH_TO":0,"LONGITUDE_":0,"LONGITUDE1":0,"LONGITUD_1":0,"LONGITUD_2":"","LATITUDE_D":0,"LATITUDE_M":0,"LATITUDE_S":0,"LATITUDE_1":"","STATUS":"NO","MARINE_FIS":1},"geometry":{"type":"Point","coordinates":[78.48000336,9.13000011]},"source_id":"incois_wfs","acquired_at":"2026-08-30T18:51:42.205191+00:00"},{"type":"Feature","feature_key":"TN0402a","properties":{"OBJECTID":568,"SECTOR_NAM":"SOUTH TAMILNADU","SECTOR_ID":"SEC006","DIST_NAME":"Ramanathapuram","LC_NAME":"Valinokkam","LC_UNIQUE_":"TN0402a","LONGITUDE":78.65,"LATITUDE":9.16,"FORECAST_I":0,"UPDATED_DA":null,"FORECAST_D":null,"VALIDITY_D":null,"DIRECTION":"","BEARING":0,"DISTANCE_F":0,"DISTANCE_T":0,"DEPTH_FROM":0,"DEPTH_TO":0,"LONGITUDE_":0,"LONGITUDE1":0,"LONGITUD_1":0,"LONGITUD_2":"","LATITUDE_D":0,"LATITUDE_M":0,"LATITUDE_S":0,"LATITUDE_1":"","STATUS":"NO","MARINE_FIS":1},"geometry":{"type":"Point","coordinates":[78.65000153,9.15999985]},"source_id":"incois_wfs","acquired_at":"2026-08-30T18:51:42.205191+00:00"},{"type":"Feature","feature_key":"TN0424b","properties":{"OBJECTID":569,"SECTOR_NAM":"SOUTH TAMILNADU","SECTOR_ID":"SEC006","DIST_NAME":"Ramanathapuram","LC_NAME":"Chinna Ervadi","LC_UNIQUE_":"TN0424b","LONGITUDE":78.72,"LATITUDE":9.2,"FORECAST_I":0,"UPDATED_DA":null,"FORECAST_D":null,"VALIDITY_D":null,"DIRECTION":"","BEARING":0,"DISTANCE_F":0,"DISTANCE_T":0,"DEPTH_FROM":0,"DEPTH_TO":0,"LONGITUDE_":0,"LONGITUDE1":0,"LONGITUD_1":0,"LONGITUD_2":"","LATITUDE_D":0,"LATITUDE_M":0,"LATITUDE_S":0,"LATITUDE_1":"","STATUS":"NO","MARINE_FIS":1},"geometry":{"type":"Point","coordinates":[78.72000122,9.19999981]},"source_id":"incois_wfs","acquired_at":"2026-08-30T18:51:42.205191+00:00"},{"type":"Feature","feature_key":"TN0403a","properties":{"OBJECTID":570,"SECTOR_NAM":"SOUTH TAMILNADU","SECTOR_ID":"SEC006","DIST_NAME":"Ramanathapuram","LC_NAME":"Kilakarai","LC_UNIQUE_":"TN0403a","LONGITUDE":78.79,"LATITUDE":9.23,"FORECAST_I":0,"UPDATED_DA":null,"FORECAST_D":null,"VALIDITY_D":null,"DIRECTION":"","BEARING":0,"DISTANCE_F":0,"DISTANCE_T":0,"DEPTH_FROM":0,"DEPTH_TO":0,"LONGITUDE_":0,"LONGITUDE1":0,"LONGITUD_1":0,"LONGITUD_2":"","LATITUDE_D":0,"LATITUDE_M":0,"LATITUDE_S":0,"LATITUDE_1":"","STATUS":"NO","MARINE_FIS":1},"geometry":{"type":"Point","coordinates":[78.79000092,9.22999954]},"source_id":"incois_wfs","acquired_at":"2026-08-30T18:51:42.205191+00:00"},{"type":"Feature","feature_key":"TN0425b","properties":{"OBJECTID":571,"SECTOR_NAM":"SOUTH TAMILNADU","SECTOR_ID":"SEC006","DIST_NAME":"Ramanathapuram","LC_NAME":"Kalimankundu","LC_UNIQUE_":"TN0425b","LONGITUDE":78.87,"LATITUDE":9.26,"FORECAST_I":0,"UPDATED_DA":null,"FORECAST_D":null,"VALIDITY_D":null,"DIRECTION":"","BEARING":0,"DISTANCE_F":0,"DISTANCE_T":0,"DEPTH_FROM":0,"DEPTH_TO":0,"LONGITUDE_":0,"LONGITUDE1":0,"LONGITUD_1":0,"LONGITUD_2":"","LATITUDE_D":0,"LATITUDE_M":0,"LATITUDE_S":0,"LATITUDE_1":"","STATUS":"NO","MARINE_FIS":1},"geometry":{"type":"Point","coordinates":[78.87000275,9.26000023]},"source_id":"incois_wfs","acquired_at":"2026-08-30T18:51:42.205191+00:00"},{"type":"Feature","feature_key":"TN0404a","properties":{"OBJECTID":572,"SECTOR_NAM":"SOUTH TAMILNADU","SECTOR_ID":"SEC006","DIST_NAME":"Ramanathapuram","LC_NAME":"Muttupettai","LC_UNIQUE_":"TN0404a","LONGITUDE":78.92,"LATITUDE":9.27,"FORECAST_I":0,"UPDATED_DA":null,"FORECAST_D":null,"VALIDITY_D":null,"DIRECTION":"","BEARING":0,"DISTANCE_F":0,"DISTANCE_T":0,"DEPTH_FROM":0,"DEPTH_TO":0,"LONGITUDE_":0,"LONGITUDE1":0,"LONGITUD_1":0,"LONGITUD_2":"","LATITUDE_D":0,"LATITUDE_M":0,"LATITUDE_S":0,"LATITUDE_1":"","STATUS":"NO","MARINE_FIS":1},"geometry":{"type":"Point","coordinates":[78.91999817,9.27000046]},"source_id":"incois_wfs","acquired_at":"2026-08-30T18:51:42.205191+00:00"},{"type":"Feature","feature_key":"TN0426b","properties":{"OBJECTID":573,"SECTOR_NAM":"SOUTH TAMILNADU","SECTOR_ID":"SEC006","DIST_NAME":"Ramanathapuram","LC_NAME":"Inthira Nagar","LC_UNIQUE_":"TN0426b","LONGITUDE":78.92,"LATITUDE":9.26,"FORECAST_I":0,"UPDATED_DA":null,"FORECAST_D":null,"VALIDITY_D":null,"DIRECTION":"","BEARING":0,"DISTANCE_F":0,"DISTANCE_T":0,"DEPTH_FROM":0,"DEPTH_TO":0,"LONGITUDE_":0,"LONGITUDE1":0,"LONGITUD_1":0,"LONGITUD_2":"","LATITUDE_D":0,"LATITUDE_M":0,"LATITUDE_S":0,"LATITUDE_1":"","STATUS":"NO","MARINE_FIS":1},"geometry":{"type":"Point","coordinates":[78.91999817,9.26000023]},"source_id":"incois_wfs","acquired_at":"2026-08-30T18:51:42.205191+00:00"},{"type":"Feature","feature_key":"TN0427b","properties":{"OBJECTID":574,"SECTOR_NAM":"SOUTH TAMILNADU","SECTOR_ID":"SEC006","DIST_NAME":"Ramanathapuram","LC_NAME":"Valangapuri","LC_UNIQUE_":"TN0427b","LONGITUDE":78.98,"LATITUDE":9.27,"FORECAST_I":0,"UPDATED_DA":null,"FORECAST_D":null,"VALIDITY_D":null,"DIRECTION":"","BEARING":0,"DISTANCE_F":0,"DISTANCE_T":0,"DEPTH_FROM":0,"DEPTH_TO":0,"LONGITUDE_":0,"LONGITUDE1":0,"LONGITUD_1":0,"LONGITUD_2":"","LATITUDE_D":0,"LATITUDE_M":0,"LATITUDE_S":0,"LATITUDE_1":"","STATUS":"NO","MARINE_FIS":1},"geometry":{"type":"Point","coordinates":[78.98000336,9.27000046]},"source_id":"incois_wfs","acquired_at":"2026-08-30T18:51:42.205191+00:00"},{"type":"Feature","feature_key":"TN0428b","properties":{"OBJECTID":575,"SECTOR_NAM":"SOUTH TAMILNADU","SECTOR_ID":"SEC006","DIST_NAME":"Ramanathapuram","LC_NAME":"Seeniyappa Dharga","LC_UNIQUE_":"TN0428b","LONGITUDE":79.07,"LATITUDE":9.26,"FORECAST_I":0,"UPDATED_DA":null,"FORECAST_D":null,"VALIDITY_D":null,"DIRECTION":"","BEARING":0,"DISTANCE_F":0,"DISTANCE_T":0,"DEPTH_FROM":0,"DEPTH_TO":0,"LONGITUDE_":0,"LONGITUDE1":0,"LONGITUD_1":0,"LONGITUD_2":"","LATITUDE_D":0,"LATITUDE_M":0,"LATITUDE_S":0,"LATITUDE_1":"","STATUS":"NO","MARINE_FIS":1},"geometry":{"type":"Point","coordinates":[79.06999969,9.26000023]},"source_id":"incois_wfs","acquired_at":"2026-08-30T18:51:42.205191+00:00"},{"type":"Feature","feature_key":"TN0429b","properties":{"OBJECTID":576,"SECTOR_NAM":"SOUTH TAMILNADU","SECTOR_ID":"SEC006","DIST_NAME":"Ramanathapuram","LC_NAME":"Vedhalai","LC_UNIQUE_":"TN0429b","LONGITUDE":79.1,"LATITUDE":9.26,"FORECAST_I":0,"UPDATED_DA":null,"FORECAST_D":null,"VALIDITY_D":null,"DIRECTION":"","BEARING":0,"DISTANCE_F":0,"DISTANCE_T":0,"DEPTH_FROM":0,"DEPTH_TO":0,"LONGITUDE_":0,"LONGITUDE1":0,"LONGITUD_1":0,"LONGITUD_2":"","LATITUDE_D":0,"LATITUDE_M":0,"LATITUDE_S":0,"LATITUDE_1":"","STATUS":"NO","MARINE_FIS":1},"geometry":{"type":"Point","coordinates":[79.09999847,9.26000023]},"source_id":"incois_wfs","acquired_at":"2026-08-30T18:51:42.205191+00:00"},{"type":"Feature","feature_key":"TN0430b","properties":{"OBJECTID":577,"SECTOR_NAM":"SOUTH TAMILNADU","SECTOR_ID":"SEC006","DIST_NAME":"Ramanathapuram","LC_NAME":"Mandapam (South)","LC_UNIQUE_":"TN0430b","LONGITUDE":79.15,"LATITUDE":9.28,"FORECAST_I":0,"UPDATED_DA":null,"FORECAST_D":null,"VALIDITY_D":null,"DIRECTION":"","BEARING":0,"DISTANCE_F":0,"DISTANCE_T":0,"DEPTH_FROM":0,"DEPTH_TO":0,"LONGITUDE_":0,"LONGITUDE1":0,"LONGITUD_1":0,"LONGITUD_2":"","LATITUDE_D":0,"LATITUDE_M":0,"LATITUDE_S":0,"LATITUDE_1":"","STATUS":"NO","MARINE_FIS":1},"geometry":{"type":"Point","coordinates":[79.15000153,9.27999973]},"source_id":"incois_wfs","acquired_at":"2026-08-30T18:51:42.205191+00:00"},{"type":"Feature","feature_key":"TN0431b","properties":{"OBJECTID":578,"SECTOR_NAM":"SOUTH TAMILNADU","SECTOR_ID":"SEC006","DIST_NAME":"Virudunagar","LC_NAME":"Chinnapalam","LC_UNIQUE_":"TN0431b","LONGITUDE":79.22,"LATITUDE":9.27,"FORECAST_I":0,"UPDATED_DA":null,"FORECAST_D":null,"VALIDITY_D":null,"DIRECTION":"","BEARING":0,"DISTANCE_F":0,"DISTANCE_T":0,"DEPTH_FROM":0,"DEPTH_TO":0,"LONGITUDE_":0,"LONGITUDE1":0,"LONGITUD_1":0,"LONGITUD_2":"","LATITUDE_D":0,"LATITUDE_M":0,"LATITUDE_S":0,"LATITUDE_1":"","STATUS":"NO","MARINE_FIS":1},"geometry":{"type":"Point","coordinates":[79.22000122,9.27000046]},"source_id":"incois_wfs","acquired_at":"2026-08-30T18:51:42.205191+00:00"},{"type":"Feature","feature_key":"TN0432b","properties":{"OBJECTID":579,"SECTOR_NAM":"SOUTH TAMILNADU","SECTOR_ID":"SEC006","DIST_NAME":"Virudunagar","LC_NAME":"Pamban Kunthukal","LC_UNIQUE_":"TN0432b","LONGITUDE":79.22,"LATITUDE":9.26,"FORECAST_I":0,"UPDATED_DA":null,"FORECAST_D":null,"VALIDITY_D":null,"DIRECTION":"","BEARING":0,"DISTANCE_F":0,"DISTANCE_T":0,"DEPTH_FROM":0,"DEPTH_TO":0,"LONGITUDE_":0,"LONGITUDE1":0,"LONGITUD_1":0,"LONGITUD_2":"","LATITUDE_D":0,"LATITUDE_M":0,"LATITUDE_S":0,"LATITUDE_1":"","STATUS":"NO","MARINE_FIS":1},"geometry":{"type":"Point","coordinates":[79.22000122,9.26000023]},"source_id":"incois_wfs","acquired_at":"2026-08-30T18:51:42.205191+00:00"},{"type":"Feature","feature_key":"TN0433b","properties":{"OBJECTID":580,"SECTOR_NAM":"SOUTH TAMILNADU","SECTOR_ID":"SEC006","DIST_NAME":"Virudunagar","LC_NAME":"Mukuntharayarchatram","LC_UNIQUE_":"TN0433b","LONGITUDE":79.38,"LATITUDE":9.2,"FORECAST_I":0,"UPDATED_DA":null,"FORECAST_D":null,"VALIDITY_D":null,"DIRECTION":"","BEARING":0,"DISTANCE_F":0,"DISTANCE_T":0,"DEPTH_FROM":0,"DEPTH_TO":0,"LONGITUDE_":0,"LONGITUDE1":0,"LONGITUD_1":0,"LONGITUD_2":"","LATITUDE_D":0,"LATITUDE_M":0,"LATITUDE_S":0,"LATITUDE_1":"","STATUS":"NO","MARINE_FIS":1},"geometry":{"type":"Point","coordinates":[79.37999725,9.19999981]},"source_id":"incois_wfs","acquired_at":"2026-08-30T18:51:42.205191+00:00"},{"type":"Feature","feature_key":"TN0409a","properties":{"OBJECTID":581,"SECTOR_NAM":"SOUTH TAMILNADU","SECTOR_ID":"SEC006","DIST_NAME":"Virudunagar","LC_NAME":"Dhanushkodi","LC_UNIQUE_":"TN0409a","LONGITUDE":79.41,"LATITUDE":9.19,"FORECAST_I":0,"UPDATED_DA":null,"FORECAST_D":null,"VALIDITY_D":null,"DIRECTION":"","BEARING":0,"DISTANCE_F":0,"DISTANCE_T":0,"DEPTH_FROM":0,"DEPTH_TO":0,"LONGITUDE_":0,"LONGITUDE1":0,"LONGITUD_1":0,"LONGITUD_2":"","LATITUDE_D":0,"LATITUDE_M":0,"LATITUDE_S":0,"LATITUDE_1":"","STATUS":"NO","MARINE_FIS":1},"geometry":{"type":"Point","coordinates":[79.41000366,9.18999958]},"source_id":"incois_wfs","acquired_at":"2026-08-30T18:51:42.205191+00:00"},{"type":"Feature","feature_key":"TN0411a","properties":{"OBJECTID":582,"SECTOR_NAM":"SOUTH TAMILNADU","SECTOR_ID":"SEC006","DIST_NAME":"Virudunagar","LC_NAME":"Verkode","LC_UNIQUE_":"TN0411a","LONGITUDE":79.32,"LATITUDE":9.28,"FORECAST_I":0,"UPDATED_DA":null,"FORECAST_D":null,"VALIDITY_D":null,"DIRECTION":"","BEARING":0,"DISTANCE_F":0,"DISTANCE_T":0,"DEPTH_FROM":0,"DEPTH_TO":0,"LONGITUDE_":0,"LONGITUDE1":0,"LONGITUD_1":0,"LONGITUD_2":"","LATITUDE_D":0,"LATITUDE_M":0,"LATITUDE_S":0,"LATITUDE_1":"","STATUS":"NO","MARINE_FIS":1},"geometry":{"type":"Point","coordinates":[79.31999969,9.27999973]},"source_id":"incois_wfs","acquired_at":"2026-08-30T18:51:42.205191+00:00"},{"type":"Feature","feature_key":"TN0833b","properties":{"OBJECTID":642,"SECTOR_NAM":"NORTH TAMILNADU","SECTOR_ID":"SEC007","DIST_NAME":"Thanjavur","LC_NAME":"Sambaipattinam","LC_UNIQUE_":"TN0833b","LONGITUDE":79.27,"LATITUDE":10.23,"FORECAST_I":0,"UPDATED_DA":null,"FORECAST_D":null,"VALIDITY_D":null,"DIRECTION":"","BEARING":0,"DISTANCE_F":0,"DISTANCE_T":0,"DEPTH_FROM":0,"DEPTH_TO":0,"LONGITUDE_":0,"LONGITUDE1":0,"LONGITUD_1":0,"LONGITUD_2":"","LATITUDE_D":0,"LATITUDE_M":0,"LATITUDE_S":0,"LATITUDE_1":"","STATUS":"NO","MARINE_FIS":1},"geometry":{"type":"Point","coordinates":[79.26999664,10.22999954]},"source_id":"incois_wfs","acquired_at":"2026-08-30T18:51:42.205191+00:00"},{"type":"Feature","feature_key":"TN0834b","properties":{"OBJECTID":643,"SECTOR_NAM":"NORTH TAMILNADU","SECTOR_ID":"SEC007","DIST_NAME":"Thanjavur","LC_NAME":"Karanguda","LC_UNIQUE_":"TN0834b","LONGITUDE":79.27,"LATITUDE":10.24,"FORECAST_I":0,"UPDATED_DA":null,"FORECAST_D":null,"VALIDITY_D":null,"DIRECTION":"","BEARING":0,"DISTANCE_F":0,"DISTANCE_T":0,"DEPTH_FROM":0,"DEPTH_TO":0,"LONGITUDE_":0,"LONGITUDE1":0,"LONGITUD_1":0,"LONGITUD_2":"","LATITUDE_D":0,"LATITUDE_M":0,"LATITUDE_S":0,"LATITUDE_1":"","STATUS":"NO","MARINE_FIS":1},"geometry":{"type":"Point","coordinates":[79.26999664,10.23999977]},"source_id":"incois_wfs","acquired_at":"2026-08-30T18:51:42.205191+00:00"},{"type":"Feature","feature_key":"TN0835b","properties":{"OBJECTID":644,"SECTOR_NAM":"NORTH TAMILNADU","SECTOR_ID":"SEC007","DIST_NAME":"Thanjavur","LC_NAME":"Kazhumanguda","LC_UNIQUE_":"TN0835b","LONGITUDE":79.28,"LATITUDE":10.24,"FORECAST_I":0,"UPDATED_DA":null,"FORECAST_D":null,"VALIDITY_D":null,"DIRECTION":"","BEARING":0,"DISTANCE_F":0,"DISTANCE_T":0,"DEPTH_FROM":0,"DEPTH_TO":0,"LONGITUDE_":0,"LONGITUDE1":0,"LONGITUD_1":0,"LONGITUD_2":"","LATITUDE_D":0,"LATITUDE_M":0,"LATITUDE_S":0,"LATITUDE_1":"","STATUS":"NO","MARINE_FIS":1},"geometry":{"type":"Point","coordinates":[79.27999878,10.23999977]},"source_id":"incois_wfs","acquired_at":"2026-08-30T18:51:42.205191+00:00"},{"type":"Feature","feature_key":"TN0836b","properties":{"OBJECTID":645,"SECTOR_NAM":"NORTH TAMILNADU","SECTOR_ID":"SEC007","DIST_NAME":"Thanjavur","LC_NAME":"Sethubavachattram","LC_UNIQUE_":"TN0836b","LONGITUDE":79.28,"LATITUDE":10.25,"FORECAST_I":0,"UPDATED_DA":null,"FORECAST_D":null,"VALIDITY_D":null,"DIRECTION":"","BEARING":0,"DISTANCE_F":0,"DISTANCE_T":0,"DEPTH_FROM":0,"DEPTH_TO":0,"LONGITUDE_":0,"LONGITUDE1":0,"LONGITUD_1":0,"LONGITUD_2":"","LATITUDE_D":0,"LATITUDE_M":0,"LATITUDE_S":0,"LATITUDE_1":"","STATUS":"NO","MARINE_FIS":1},"geometry":{"type":"Point","coordinates":[79.27999878,10.25]},"source_id":"incois_wfs","acquired_at":"2026-08-30T18:51:42.205191+00:00"},{"type":"Feature","feature_key":"TN0837b","properties":{"OBJECTID":646,"SECTOR_NAM":"NORTH TAMILNADU","SECTOR_ID":"SEC007","DIST_NAME":"Thanjavur","LC_NAME":"Pillayarthidal","LC_UNIQUE_":"TN0837b","LONGITUDE":79.29,"LATITUDE":10.26,"FORECAST_I":0,"UPDATED_DA":null,"FORECAST_D":null,"VALIDITY_D":null,"DIRECTION":"","BEARING":0,"DISTANCE_F":0,"DISTANCE_T":0,"DEPTH_FROM":0,"DEPTH_TO":0,"LONGITUDE_":0,"LONGITUDE1":0,"LONGITUD_1":0,"LONGITUD_2":"","LATITUDE_D":0,"LATITUDE_M":0,"LATITUDE_S":0,"LATITUDE_1":"","STATUS":"NO","MARINE_FIS":1},"geometry":{"type":"Point","coordinates":[79.29000092,10.26000023]},"source_id":"incois_wfs","acquired_at":"2026-08-30T18:51:42.205191+00:00"},{"type":"Feature","feature_key":"TN0838b","properties":{"OBJECTID":647,"SECTOR_NAM":"NORTH TAMILNADU","SECTOR_ID":"SEC007","DIST_NAME":"Thanjavur","LC_NAME":"Chinnamanai","LC_UNIQUE_":"TN0838b","LONGITUDE":79.31,"LATITUDE":10.27,"FORECAST_I":0,"UPDATED_DA":null,"FORECAST_D":null,"VALIDITY_D":null,"DIRECTION":"","BEARING":0,"DISTANCE_F":0,"DISTANCE_T":0,"DEPTH_FROM":0,"DEPTH_TO":0,"LONGITUDE_":0,"LONGITUDE1":0,"LONGITUD_1":0,"LONGITUD_2":"","LATITUDE_D":0,"LATITUDE_M":0,"LATITUDE_S":0,"LATITUDE_1":"","STATUS":"NO","MARINE_FIS":1},"geometry":{"type":"Point","coordinates":[79.30999756,10.27000046]},"source_id":"incois_wfs","acquired_at":"2026-08-30T18:51:42.205191+00:00"},{"type":"Feature","feature_key":"TN0839b","properties":{"OBJECTID":648,"SECTOR_NAM":"NORTH TAMILNADU","SECTOR_ID":"SEC007","DIST_NAME":"Thanjavur","LC_NAME":"Mallipattinam","LC_UNIQUE_":"TN0839b","LONGITUDE":79.32,"LATITUDE":10.28,"FORECAST_I":0,"UPDATED_DA":null,"FORECAST_D":null,"VALIDITY_D":null,"DIRECTION":"","BEARING":0,"DISTANCE_F":0,"DISTANCE_T":0,"DEPTH_FROM":0,"DEPTH_TO":0,"LONGITUDE_":0,"LONGITUDE1":0,"LONGITUD_1":0,"LONGITUD_2":"","LATITUDE_D":0,"LATITUDE_M":0,"LATITUDE_S":0,"LATITUDE_1":"","STATUS":"NO","MARINE_FIS":1},"geometry":{"type":"Point","coordinates":[79.31999969,10.27999973]},"source_id":"incois_wfs","acquired_at":"2026-08-30T18:51:42.205191+00:00"},{"type":"Feature","feature_key":"TN0840b","properties":{"OBJECTID":649,"SECTOR_NAM":"NORTH TAMILNADU","SECTOR_ID":"SEC007","DIST_NAME":"Thanjavur","LC_NAME":"Puthupattinam","LC_UNIQUE_":"TN0840b","LONGITUDE":79.33,"LATITUDE":10.29,"FORECAST_I":0,"UPDATED_DA":null,"FORECAST_D":null,"VALIDITY_D":null,"DIRECTION":"","BEARING":0,"DISTANCE_F":0,"DISTANCE_T":0,"DEPTH_FROM":0,"DEPTH_TO":0,"LONGITUDE_":0,"LONGITUDE1":0,"LONGITUD_1":0,"LONGITUD_2":"","LATITUDE_D":0,"LATITUDE_M":0,"LATITUDE_S":0,"LATITUDE_1":"","STATUS":"NO","MARINE_FIS":1},"geometry":{"type":"Point","coordinates":[79.33000183,10.28999996]},"source_id":"incois_wfs","acquired_at":"2026-08-30T18:51:42.205191+00:00"},{"type":"Feature","feature_key":"TN0841b","properties":{"OBJECTID":650,"SECTOR_NAM":"NORTH TAMILNADU","SECTOR_ID":"SEC007","DIST_NAME":"Thanjavur","LC_NAME":"Velivayal","LC_UNIQUE_":"TN0841b","LONGITUDE":79.34,"LATITUDE":10.29,"FORECAST_I":0,"UPDATED_DA":null,"FORECAST_D":null,"VALIDITY_D":null,"DIRECTION":"","BEARING":0,"DISTANCE_F":0,"DISTANCE_T":0,"DEPTH_FROM":0,"DEPTH_TO":0,"LONGITUDE_":0,"LONGITUDE1":0,"LONGITUD_1":0,"LONGITUD_2":"","LATITUDE_D":0,"LATITUDE_M":0,"LATITUDE_S":0,"LATITUDE_1":"","STATUS":"NO","MARINE_FIS":1},"geometry":{"type":"Point","coordinates":[79.33999634,10.28999996]},"source_id":"incois_wfs","acquired_at":"2026-08-30T18:51:42.205191+00:00"},{"type":"Feature","feature_key":"TN0842b","properties":{"OBJECTID":651,"SECTOR_NAM":"NORTH TAMILNADU","SECTOR_ID":"SEC007","DIST_NAME":"Thanjavur","LC_NAME":"Kollukadu","LC_UNIQUE_":"TN0842b","LONGITUDE":79.35,"LATITUDE":10.29,"FORECAST_I":0,"UPDATED_DA":null,"FORECAST_D":null,"VALIDITY_D":null,"DIRECTION":"","BEARING":0,"DISTANCE_F":0,"DISTANCE_T":0,"DEPTH_FROM":0,"DEPTH_TO":0,"LONGITUDE_":0,"LONGITUDE1":0,"LONGITUD_1":0,"LONGITUD_2":"","LATITUDE_D":0,"LATITUDE_M":0,"LATITUDE_S":0,"LATITUDE_1":"","STATUS":"NO","MARINE_FIS":1},"geometry":{"type":"Point","coordinates":[79.34999847,10.28999996]},"source_id":"incois_wfs","acquired_at":"2026-08-30T18:51:42.205191+00:00"},{"type":"Feature","feature_key":"TN0843b","properties":{"OBJECTID":652,"SECTOR_NAM":"NORTH TAMILNADU","SECTOR_ID":"SEC007","DIST_NAME":"Thanjavur","LC_NAME":"Keelathottam","LC_UNIQUE_":"TN0843b","LONGITUDE":79.37,"LATITUDE":10.29,"FORECAST_I":0,"UPDATED_DA":null,"FORECAST_D":null,"VALIDITY_D":null,"DIRECTION":"","BEARING":0,"DISTANCE_F":0,"DISTANCE_T":0,"DEPTH_FROM":0,"DEPTH_TO":0,"LONGITUDE_":0,"LONGITUDE1":0,"LONGITUD_1":0,"LONGITUD_2":"","LATITUDE_D":0,"LATITUDE_M":0,"LATITUDE_S":0,"LATITUDE_1":"","STATUS":"NO","MARINE_FIS":1},"geometry":{"type":"Point","coordinates":[79.37000275,10.28999996]},"source_id":"incois_wfs","acquired_at":"2026-08-30T18:51:42.205191+00:00"},{"type":"Feature","feature_key":"TN0844b","properties":{"OBJECTID":653,"SECTOR_NAM":"NORTH TAMILNADU","SECTOR_ID":"SEC007","DIST_NAME":"Thanjavur","LC_NAME":"Eripurakkarai","LC_UNIQUE_":"TN0844b","LONGITUDE":79.38,"LATITUDE":10.32,"FORECAST_I":0,"UPDATED_DA":null,"FORECAST_D":null,"VALIDITY_D":null,"DIRECTION":"","BEARING":0,"DISTANCE_F":0,"DISTANCE_T":0,"DEPTH_FROM":0,"DEPTH_TO":0,"LONGITUDE_":0,"LONGITUDE1":0,"LONGITUD_1":0,"LONGITUD_2":"","LATITUDE_D":0,"LATITUDE_M":0,"LATITUDE_S":0,"LATITUDE_1":"","STATUS":"NO","MARINE_FIS":1},"geometry":{"type":"Point","coordinates":[79.37999725,10.31999969]},"source_id":"incois_wfs","acquired_at":"2026-08-30T18:51:42.205191+00:00"},{"type":"Feature","feature_key":"TN0845b","properties":{"OBJECTID":654,"SECTOR_NAM":"NORTH TAMILNADU","SECTOR_ID":"SEC007","DIST_NAME":"Thanjavur","LC_NAME":"Gandhinagar","LC_UNIQUE_":"TN0845b","LONGITUDE":79.39,"LATITUDE":10.32,"FORECAST_I":0,"UPDATED_DA":null,"FORECAST_D":null,"VALIDITY_D":null,"DIRECTION":"","BEARING":0,"DISTANCE_F":0,"DISTANCE_T":0,"DEPTH_FROM":0,"DEPTH_TO":0,"LONGITUDE_":0,"LONGITUDE1":0,"LONGITUD_1":0,"LONGITUD_2":"","LATITUDE_D":0,"LATITUDE_M":0,"LATITUDE_S":0,"LATITUDE_1":"","STATUS":"NO","MARINE_FIS":1},"geometry":{"type":"Point","coordinates":[79.38999939,10.31999969]},"source_id":"incois_wfs","acquired_at":"2026-08-30T18:51:42.205191+00:00"},{"type":"Feature","feature_key":"TN0846b","properties":{"OBJECTID":655,"SECTOR_NAM":"NORTH TAMILNADU","SECTOR_ID":"SEC007","DIST_NAME":"Thanjavur","LC_NAME":"Karaiyurtheru","LC_UNIQUE_":"TN0846b","LONGITUDE":79.4,"LATITUDE":10.32,"FORECAST_I":0,"UPDATED_DA":null,"FORECAST_D":null,"VALIDITY_D":null,"DIRECTION":"","BEARING":0,"DISTANCE_F":0,"DISTANCE_T":0,"DEPTH_FROM":0,"DEPTH_TO":0,"LONGITUDE_":0,"LONGITUDE1":0,"LONGITUD_1":0,"LONGITUD_2":"","LATITUDE_D":0,"LATITUDE_M":0,"LATITUDE_S":0,"LATITUDE_1":"","STATUS":"NO","MARINE_FIS":1},"geometry":{"type":"Point","coordinates":[79.40000153,10.31999969]},"source_id":"incois_wfs","acquired_at":"2026-08-30T18:51:42.205191+00:00"},{"type":"Feature","feature_key":"TN0847b","properties":{"OBJECTID":656,"SECTOR_NAM":"NORTH TAMILNADU","SECTOR_ID":"SEC007","DIST_NAME":"Thanjavur","LC_NAME":"Maravakadu","LC_UNIQUE_":"TN0847b","LONGITUDE":79.46,"LATITUDE":10.34,"FORECAST_I":0,"UPDATED_DA":null,"FORECAST_D":null,"VALIDITY_D":null,"DIRECTION":"","BEARING":0,"DISTANCE_F":0,"DISTANCE_T":0,"DEPTH_FROM":0,"DEPTH_TO":0,"LONGITUDE_":0,"LONGITUDE1":0,"LONGITUD_1":0,"LONGITUD_2":"","LATITUDE_D":0,"LATITUDE_M":0,"LATITUDE_S":0,"LATITUDE_1":"","STATUS":"NO","MARINE_FIS":1},"geometry":{"type":"Point","coordinates":[79.45999908,10.34000015]},"source_id":"incois_wfs","acquired_at":"2026-08-30T18:51:42.205191+00:00"},{"type":"Feature","feature_key":"TN0848b","properties":{"OBJECTID":657,"SECTOR_NAM":"NORTH TAMILNADU","SECTOR_ID":"SEC007","DIST_NAME":"Thiruvarur","LC_NAME":"Thambikottai","LC_UNIQUE_":"TN0848b","LONGITUDE":79.5,"LATITUDE":10.34,"FORECAST_I":0,"UPDATED_DA":null,"FORECAST_D":null,"VALIDITY_D":null,"DIRECTION":"","BEARING":0,"DISTANCE_F":0,"DISTANCE_T":0,"DEPTH_FROM":0,"DEPTH_TO":0,"LONGITUDE_":0,"LONGITUDE1":0,"LONGITUD_1":0,"LONGITUD_2":"","LATITUDE_D":0,"LATITUDE_M":0,"LATITUDE_S":0,"LATITUDE_1":"","STATUS":"NO","MARINE_FIS":1},"geometry":{"type":"Point","coordinates":[79.5,10.34000015]},"source_id":"incois_wfs","acquired_at":"2026-08-30T18:51:42.205191+00:00"},{"type":"Feature","feature_key":"TN0701a","properties":{"OBJECTID":658,"SECTOR_NAM":"NORTH TAMILNADU","SECTOR_ID":"SEC007","DIST_NAME":"Thiruvarur","LC_NAME":"Muthupet","LC_UNIQUE_":"TN0701a","LONGITUDE":79.52,"LATITUDE":10.34,"FORECAST_I":0,"UPDATED_DA":null,"FORECAST_D":null,"VALIDITY_D":null,"DIRECTION":"","BEARING":0,"DISTANCE_F":0,"DISTANCE_T":0,"DEPTH_FROM":0,"DEPTH_TO":0,"LONGITUDE_":0,"LONGITUDE1":0,"LONGITUD_1":0,"LONGITUD_2":"","LATITUDE_D":0,"LATITUDE_M":0,"LATITUDE_S":0,"LATITUDE_1":"","STATUS":"NO","MARINE_FIS":1},"geometry":{"type":"Point","coordinates":[79.51999664,10.34000015]},"source_id":"incois_wfs","acquired_at":"2026-08-30T18:51:42.205191+00:00"},{"type":"Feature","feature_key":"TN0849b","properties":{"OBJECTID":659,"SECTOR_NAM":"NORTH TAMILNADU","SECTOR_ID":"SEC007","DIST_NAME":"Nagappattinam","LC_NAME":"Point Calimer","LC_UNIQUE_":"TN0849b","LONGITUDE":79.82,"LATITUDE":10.27,"FORECAST_I":0,"UPDATED_DA":null,"FORECAST_D":null,"VALIDITY_D":null,"DIRECTION":"","BEARING":0,"DISTANCE_F":0,"DISTANCE_T":0,"DEPTH_FROM":0,"DEPTH_TO":0,"LONGITUDE_":0,"LONGITUDE1":0,"LONGITUD_1":0,"LONGITUD_2":"","LATITUDE_D":0,"LATITUDE_M":0,"LATITUDE_S":0,"LATITUDE_1":"","STATUS":"NO","MARINE_FIS":1},"geometry":{"type":"Point","coordinates":[79.81999969,10.27000046]},"source_id":"incois_wfs","acquired_at":"2026-08-30T18:51:42.205191+00:00"},{"type":"Feature","feature_key":"TN0850b","properties":{"OBJECTID":660,"SECTOR_NAM":"NORTH TAMILNADU","SECTOR_ID":"SEC007","DIST_NAME":"Nagappattinam","LC_NAME":"Kodiyakarai","LC_UNIQUE_":"TN0850b","LONGITUDE":79.84,"LATITUDE":10.28,"FORECAST_I":0,"UPDATED_DA":null,"FORECAST_D":null,"VALIDITY_D":null,"DIRECTION":"","BEARING":0,"DISTANCE_F":0,"DISTANCE_T":0,"DEPTH_FROM":0,"DEPTH_TO":0,"LONGITUDE_":0,"LONGITUDE1":0,"LONGITUD_1":0,"LONGITUD_2":"","LATITUDE_D":0,"LATITUDE_M":0,"LATITUDE_S":0,"LATITUDE_1":"","STATUS":"NO","MARINE_FIS":1},"geometry":{"type":"Point","coordinates":[79.83999634,10.27999973]},"source_id":"incois_wfs","acquired_at":"2026-08-30T18:51:42.205191+00:00"},{"type":"Feature","feature_key":"TN0802a","properties":{"OBJECTID":661,"SECTOR_NAM":"NORTH TAMILNADU","SECTOR_ID":"SEC007","DIST_NAME":"Nagappattinam","LC_NAME":"Vedaranniyam","LC_UNIQUE_":"TN0802a","LONGITUDE":79.87,"LATITUDE":10.38,"FORECAST_I":0,"UPDATED_DA":null,"FORECAST_D":null,"VALIDITY_D":null,"DIRECTION":"","BEARING":0,"DISTANCE_F":0,"DISTANCE_T":0,"DEPTH_FROM":0,"DEPTH_TO":0,"LONGITUDE_":0,"LONGITUDE1":0,"LONGITUD_1":0,"LONGITUD_2":"","LATITUDE_D":0,"LATITUDE_M":0,"LATITUDE_S":0,"LATITUDE_1":"","STATUS":"NO","MARINE_FIS":1},"geometry":{"type":"Point","coordinates":[79.87000275,10.38000011]},"source_id":"incois_wfs","acquired_at":"2026-08-30T18:51:42.205191+00:00"},{"type":"Feature","feature_key":"TN0851b","properties":{"OBJECTID":662,"SECTOR_NAM":"NORTH TAMILNADU","SECTOR_ID":"SEC007","DIST_NAME":"Nagappattinam","LC_NAME":"Arkkattuthurai","LC_UNIQUE_":"TN0851b","LONGITUDE":79.87,"LATITUDE":10.39,"FORECAST_I":0,"UPDATED_DA":null,"FORECAST_D":null,"VALIDITY_D":null,"DIRECTION":"","BEARING":0,"DISTANCE_F":0,"DISTANCE_T":0,"DEPTH_FROM":0,"DEPTH_TO":0,"LONGITUDE_":0,"LONGITUDE1":0,"LONGITUD_1":0,"LONGITUD_2":"","LATITUDE_D":0,"LATITUDE_M":0,"LATITUDE_S":0,"LATITUDE_1":"","STATUS":"NO","MARINE_FIS":1},"geometry":{"type":"Point","coordinates":[79.87000275,10.39000034]},"source_id":"incois_wfs","acquired_at":"2026-08-30T18:51:42.205191+00:00"},{"type":"Feature","feature_key":"TN0803a","properties":{"OBJECTID":663,"SECTOR_NAM":"NORTH TAMILNADU","SECTOR_ID":"SEC007","DIST_NAME":"Nagappattinam","LC_NAME":"Topputturai","LC_UNIQUE_":"TN0803a","LONGITUDE":79.87,"LATITUDE":10.41,"FORECAST_I":0,"UPDATED_DA":null,"FORECAST_D":null,"VALIDITY_D":null,"DIRECTION":"","BEARING":0,"DISTANCE_F":0,"DISTANCE_T":0,"DEPTH_FROM":0,"DEPTH_TO":0,"LONGITUDE_":0,"LONGITUDE1":0,"LONGITUD_1":0,"LONGITUD_2":"","LATITUDE_D":0,"LATITUDE_M":0,"LATITUDE_S":0,"LATITUDE_1":"","STATUS":"NO","MARINE_FIS":1},"geometry":{"type":"Point","coordinates":[79.87000275,10.40999985]},"source_id":"incois_wfs","acquired_at":"2026-08-30T18:51:42.205191+00:00"},{"type":"Feature","feature_key":"TN0852b","properties":{"OBJECTID":664,"SECTOR_NAM":"NORTH TAMILNADU","SECTOR_ID":"SEC007","DIST_NAME":"Nagappattinam","LC_NAME":"Pushpavanam","LC_UNIQUE_":"TN0852b","LONGITUDE":79.86,"LATITUDE":10.46,"FORECAST_I":0,"UPDATED_DA":null,"FORECAST_D":null,"VALIDITY_D":null,"DIRECTION":"","BEARING":0,"DISTANCE_F":0,"DISTANCE_T":0,"DEPTH_FROM":0,"DEPTH_TO":0,"LONGITUDE_":0,"LONGITUDE1":0,"LONGITUD_1":0,"LONGITUD_2":"","LATITUDE_D":0,"LATITUDE_M":0,"LATITUDE_S":0,"LATITUDE_1":"","STATUS":"NO","MARINE_FIS":1},"geometry":{"type":"Point","coordinates":[79.86000061,10.46000004]},"source_id":"incois_wfs","acquired_at":"2026-08-30T18:51:42.205191+00:00"},{"type":"Feature","feature_key":"TN0805a","properties":{"OBJECTID":665,"SECTOR_NAM":"NORTH TAMILNADU","SECTOR_ID":"SEC007","DIST_NAME":"Nagappattinam","LC_NAME":"Kallinodu","LC_UNIQUE_":"TN0805a","LONGITUDE":79.86,"LATITUDE":10.49,"FORECAST_I":0,"UPDATED_DA":null,"FORECAST_D":null,"VALIDITY_D":null,"DIRECTION":"","BEARING":0,"DISTANCE_F":0,"DISTANCE_T":0,"DEPTH_FROM":0,"DEPTH_TO":0,"LONGITUDE_":0,"LONGITUDE1":0,"LONGITUD_1":0,"LONGITUD_2":"","LATITUDE_D":0,"LATITUDE_M":0,"LATITUDE_S":0,"LATITUDE_1":"","STATUS":"NO","MARINE_FIS":1},"geometry":{"type":"Point","coordinates":[79.86000061,10.48999977]},"source_id":"incois_wfs","acquired_at":"2026-08-30T18:51:42.205191+00:00"},{"type":"Feature","feature_key":"TN0806a","properties":{"OBJECTID":666,"SECTOR_NAM":"NORTH TAMILNADU","SECTOR_ID":"SEC007","DIST_NAME":"Nagappattinam","LC_NAME":"Vellapallam","LC_UNIQUE_":"TN0806a","LONGITUDE":79.86,"LATITUDE":10.51,"FORECAST_I":0,"UPDATED_DA":null,"FORECAST_D":null,"VALIDITY_D":null,"DIRECTION":"","BEARING":0,"DISTANCE_F":0,"DISTANCE_T":0,"DEPTH_FROM":0,"DEPTH_TO":0,"LONGITUDE_":0,"LONGITUDE1":0,"LONGITUD_1":0,"LONGITUD_2":"","LATITUDE_D":0,"LATITUDE_M":0,"LATITUDE_S":0,"LATITUDE_1":"","STATUS":"NO","MARINE_FIS":1},"geometry":{"type":"Point","coordinates":[79.86000061,10.51000023]},"source_id":"incois_wfs","acquired_at":"2026-08-30T18:51:42.205191+00:00"},{"type":"Feature","feature_key":"TN0853b","properties":{"OBJECTID":667,"SECTOR_NAM":"NORTH TAMILNADU","SECTOR_ID":"SEC007","DIST_NAME":"Nagappattinam","LC_NAME":"Vanavanmadevi","LC_UNIQUE_":"TN0853b","LONGITUDE":79.86,"LATITUDE":10.54,"FORECAST_I":0,"UPDATED_DA":null,"FORECAST_D":null,"VALIDITY_D":null,"DIRECTION":"","BEARING":0,"DISTANCE_F":0,"DISTANCE_T":0,"DEPTH_FROM":0,"DEPTH_TO":0,"LONGITUDE_":0,"LONGITUDE1":0,"LONGITUD_1":0,"LONGITUD_2":"","LATITUDE_D":0,"LATITUDE_M":0,"LATITUDE_S":0,"LATITUDE_1":"","STATUS":"NO","MARINE_FIS":1},"geometry":{"type":"Point","coordinates":[79.86000061,10.53999996]},"source_id":"incois_wfs","acquired_at":"2026-08-30T18:51:42.205191+00:00"},{"type":"Feature","feature_key":"TN0807a","properties":{"OBJECTID":668,"SECTOR_NAM":"NORTH TAMILNADU","SECTOR_ID":"SEC007","DIST_NAME":"Nagappattinam","LC_NAME":"Vettaikaranrippu","LC_UNIQUE_":"TN0807a","LONGITUDE":79.86,"LATITUDE":10.57,"FORECAST_I":0,"UPDATED_DA":null,"FORECAST_D":null,"VALIDITY_D":null,"DIRECTION":"","BEARING":0,"DISTANCE_F":0,"DISTANCE_T":0,"DEPTH_FROM":0,"DEPTH_TO":0,"LONGITUDE_":0,"LONGITUDE1":0,"LONGITUD_1":0,"LONGITUD_2":"","LATITUDE_D":0,"LATITUDE_M":0,"LATITUDE_S":0,"LATITUDE_1":"","STATUS":"NO","MARINE_FIS":1},"geometry":{"type":"Point","coordinates":[79.86000061,10.56999969]},"source_id":"incois_wfs","acquired_at":"2026-08-30T18:51:42.205191+00:00"},{"type":"Feature","feature_key":"TN0854b","properties":{"OBJECTID":669,"SECTOR_NAM":"NORTH TAMILNADU","SECTOR_ID":"SEC007","DIST_NAME":"Nagappattinam","LC_NAME":"Vilunthamavadi","LC_UNIQUE_":"TN0854b","LONGITUDE":79.86,"LATITUDE":10.6,"FORECAST_I":0,"UPDATED_DA":null,"FORECAST_D":null,"VALIDITY_D":null,"DIRECTION":"","BEARING":0,"DISTANCE_F":0,"DISTANCE_T":0,"DEPTH_FROM":0,"DEPTH_TO":0,"LONGITUDE_":0,"LONGITUDE1":0,"LONGITUD_1":0,"LONGITUD_2":"","LATITUDE_D":0,"LATITUDE_M":0,"LATITUDE_S":0,"LATITUDE_1":"","STATUS":"NO","MARINE_FIS":1},"geometry":{"type":"Point","coordinates":[79.86000061,10.60000038]},"source_id":"incois_wfs","acquired_at":"2026-08-30T18:51:42.205191+00:00"},{"type":"Feature","feature_key":"TN0808a","properties":{"OBJECTID":670,"SECTOR_NAM":"NORTH TAMILNADU","SECTOR_ID":"SEC007","DIST_NAME":"Nagappattinam","LC_NAME":"Kameshwaram","LC_UNIQUE_":"TN0808a","LONGITUDE":79.85,"LATITUDE":10.62,"FORECAST_I":0,"UPDATED_DA":null,"FORECAST_D":null,"VALIDITY_D":null,"DIRECTION":"","BEARING":0,"DISTANCE_F":0,"DISTANCE_T":0,"DEPTH_FROM":0,"DEPTH_TO":0,"LONGITUDE_":0,"LONGITUDE1":0,"LONGITUD_1":0,"LONGITUD_2":"","LATITUDE_D":0,"LATITUDE_M":0,"LATITUDE_S":0,"LATITUDE_1":"","STATUS":"NO","MARINE_FIS":1},"geometry":{"type":"Point","coordinates":[79.84999847,10.61999989]},"source_id":"incois_wfs","acquired_at":"2026-08-30T18:51:42.205191+00:00"},{"type":"Feature","feature_key":"TN0855b","properties":{"OBJECTID":671,"SECTOR_NAM":"NORTH TAMILNADU","SECTOR_ID":"SEC007","DIST_NAME":"Nagappattinam","LC_NAME":"Seruthur","LC_UNIQUE_":"TN0855b","LONGITUDE":79.85,"LATITUDE":10.67,"FORECAST_I":0,"UPDATED_DA":null,"FORECAST_D":null,"VALIDITY_D":null,"DIRECTION":"","BEARING":0,"DISTANCE_F":0,"DISTANCE_T":0,"DEPTH_FROM":0,"DEPTH_TO":0,"LONGITUDE_":0,"LONGITUDE1":0,"LONGITUD_1":0,"LONGITUD_2":"","LATITUDE_D":0,"LATITUDE_M":0,"LATITUDE_S":0,"LATITUDE_1":"","STATUS":"NO","MARINE_FIS":1},"geometry":{"type":"Point","coordinates":[79.84999847,10.67000008]},"source_id":"incois_wfs","acquired_at":"2026-08-30T18:51:42.205191+00:00"},{"type":"Feature","feature_key":"TN0810a","properties":{"OBJECTID":672,"SECTOR_NAM":"NORTH TAMILNADU","SECTOR_ID":"SEC007","DIST_NAME":"Nagappattinam","LC_NAME":"Velanganni","LC_UNIQUE_":"TN0810a","LONGITUDE":79.85,"LATITUDE":10.68,"FORECAST_I":0,"UPDATED_DA":null,"FORECAST_D":null,"VALIDITY_D":null,"DIRECTION":"","BEARING":0,"DISTANCE_F":0,"DISTANCE_T":0,"DEPTH_FROM":0,"DEPTH_TO":0,"LONGITUDE_":0,"LONGITUDE1":0,"LONGITUD_1":0,"LONGITUD_2":"","LATITUDE_D":0,"LATITUDE_M":0,"LATITUDE_S":0,"LATITUDE_1":"","STATUS":"NO","MARINE_FIS":1},"geometry":{"type":"Point","coordinates":[79.84999847,10.68000031]},"source_id":"incois_wfs","acquired_at":"2026-08-30T18:51:42.205191+00:00"},{"type":"Feature","feature_key":"TN0804a","properties":{"OBJECTID":673,"SECTOR_NAM":"NORTH TAMILNADU","SECTOR_ID":"SEC007","DIST_NAME":"Nagappattinam","LC_NAME":"Akkaraipettai","LC_UNIQUE_":"TN0804a","LONGITUDE":79.85,"LATITUDE":10.76,"FORECAST_I":0,"UPDATED_DA":null,"FORECAST_D":null,"VALIDITY_D":null,"DIRECTION":"","BEARING":0,"DISTANCE_F":0,"DISTANCE_T":0,"DEPTH_FROM":0,"DEPTH_TO":0,"LONGITUDE_":0,"LONGITUDE1":0,"LONGITUD_1":0,"LONGITUD_2":"","LATITUDE_D":0,"LATITUDE_M":0,"LATITUDE_S":0,"LATITUDE_1":"","STATUS":"NO","MARINE_FIS":1},"geometry":{"type":"Point","coordinates":[79.84999847,10.76000023]},"source_id":"incois_wfs","acquired_at":"2026-08-30T18:51:42.205191+00:00"},{"type":"Feature","feature_key":"TN0856b","properties":{"OBJECTID":674,"SECTOR_NAM":"NORTH TAMILNADU","SECTOR_ID":"SEC007","DIST_NAME":"Nagappattinam","LC_NAME":"Nagapattinam Harbour","LC_UNIQUE_":"TN0856b","LONGITUDE":79.85,"LATITUDE":10.77,"FORECAST_I":0,"UPDATED_DA":null,"FORECAST_D":null,"VALIDITY_D":null,"DIRECTION":"","BEARING":0,"DISTANCE_F":0,"DISTANCE_T":0,"DEPTH_FROM":0,"DEPTH_TO":0,"LONGITUDE_":0,"LONGITUDE1":0,"LONGITUD_1":0,"LONGITUD_2":"","LATITUDE_D":0,"LATITUDE_M":0,"LATITUDE_S":0,"LATITUDE_1":"","STATUS":"NO","MARINE_FIS":1},"geometry":{"type":"Point","coordinates":[79.84999847,10.77000046]},"source_id":"incois_wfs","acquired_at":"2026-08-30T18:51:42.205191+00:00"},{"type":"Feature","feature_key":"TN0857b","properties":{"OBJECTID":675,"SECTOR_NAM":"NORTH TAMILNADU","SECTOR_ID":"SEC007","DIST_NAME":"Nagappattinam","LC_NAME":"Nambiyar Nagar","LC_UNIQUE_":"TN0857b","LONGITUDE":79.85,"LATITUDE":10.78,"FORECAST_I":0,"UPDATED_DA":null,"FORECAST_D":null,"VALIDITY_D":null,"DIRECTION":"","BEARING":0,"DISTANCE_F":0,"DISTANCE_T":0,"DEPTH_FROM":0,"DEPTH_TO":0,"LONGITUDE_":0,"LONGITUDE1":0,"LONGITUD_1":0,"LONGITUD_2":"","LATITUDE_D":0,"LATITUDE_M":0,"LATITUDE_S":0,"LATITUDE_1":"","STATUS":"NO","MARINE_FIS":1},"geometry":{"type":"Point","coordinates":[79.84999847,10.77999973]},"source_id":"incois_wfs","acquired_at":"2026-08-30T18:51:42.205191+00:00"},{"type":"Feature","feature_key":"TN0858b","properties":{"OBJECTID":676,"SECTOR_NAM":"NORTH TAMILNADU","SECTOR_ID":"SEC007","DIST_NAME":"Nagappattinam","LC_NAME":"Samanthanpettai","LC_UNIQUE_":"TN0858b","LONGITUDE":79.85,"LATITUDE":10.8,"FORECAST_I":0,"UPDATED_DA":null,"FORECAST_D":null,"VALIDITY_D":null,"DIRECTION":"","BEARING":0,"DISTANCE_F":0,"DISTANCE_T":0,"DEPTH_FROM":0,"DEPTH_TO":0,"LONGITUDE_":0,"LONGITUDE1":0,"LONGITUD_1":0,"LONGITUD_2":"","LATITUDE_D":0,"LATITUDE_M":0,"LATITUDE_S":0,"LATITUDE_1":"","STATUS":"NO","MARINE_FIS":1},"geometry":{"type":"Point","coordinates":[79.84999847,10.80000019]},"source_id":"incois_wfs","acquired_at":"2026-08-30T18:51:42.205191+00:00"},{"type":"Feature","feature_key":"TN0812a","properties":{"OBJECTID":677,"SECTOR_NAM":"NORTH TAMILNADU","SECTOR_ID":"SEC007","DIST_NAME":"Nagappattinam","LC_NAME":"Nagore","LC_UNIQUE_":"TN0812a","LONGITUDE":79.85,"LATITUDE":10.82,"FORECAST_I":0,"UPDATED_DA":null,"FORECAST_D":null,"VALIDITY_D":null,"DIRECTION":"","BEARING":0,"DISTANCE_F":0,"DISTANCE_T":0,"DEPTH_FROM":0,"DEPTH_TO":0,"LONGITUDE_":0,"LONGITUDE1":0,"LONGITUD_1":0,"LONGITUD_2":"","LATITUDE_D":0,"LATITUDE_M":0,"LATITUDE_S":0,"LATITUDE_1":"","STATUS":"NO","MARINE_FIS":1},"geometry":{"type":"Point","coordinates":[79.84999847,10.81999969]},"source_id":"incois_wfs","acquired_at":"2026-08-30T18:51:42.205191+00:00"},{"type":"Feature","feature_key":"TN0434b","properties":{"OBJECTID":583,"SECTOR_NAM":"SOUTH TAMILNADU","SECTOR_ID":"SEC006","DIST_NAME":"Virudunagar","LC_NAME":"Rameshwaram Harbour","LC_UNIQUE_":"TN0434b","LONGITUDE":79.31,"LATITUDE":9.28,"FORECAST_I":0,"UPDATED_DA":null,"FORECAST_D":null,"VALIDITY_D":null,"DIRECTION":"","BEARING":0,"DISTANCE_F":0,"DISTANCE_T":0,"DEPTH_FROM":0,"DEPTH_TO":0,"LONGITUDE_":0,"LONGITUDE1":0,"LONGITUD_1":0,"LONGITUD_2":"","LATITUDE_D":0,"LATITUDE_M":0,"LATITUDE_S":0,"LATITUDE_1":"","STATUS":"NO","MARINE_FIS":1},"geometry":{"type":"Point","coordinates":[79.30999756,9.27999973]},"source_id":"incois_wfs","acquired_at":"2026-08-30T18:51:42.205191+00:00"},{"type":"Feature","feature_key":"TN0410a","properties":{"OBJECTID":584,"SECTOR_NAM":"SOUTH TAMILNADU","SECTOR_ID":"SEC006","DIST_NAME":"Virudunagar","LC_NAME":"Olaikuda","LC_UNIQUE_":"TN0410a","LONGITUDE":79.33,"LATITUDE":9.32,"FORECAST_I":0,"UPDATED_DA":null,"FORECAST_D":null,"VALIDITY_D":null,"DIRECTION":"","BEARING":0,"DISTANCE_F":0,"DISTANCE_T":0,"DEPTH_FROM":0,"DEPTH_TO":0,"LONGITUDE_":0,"LONGITUDE1":0,"LONGITUD_1":0,"LONGITUD_2":"","LATITUDE_D":0,"LATITUDE_M":0,"LATITUDE_S":0,"LATITUDE_1":"","STATUS":"NO","MARINE_FIS":1},"geometry":{"type":"Point","coordinates":[79.33000183,9.31999969]},"source_id":"incois_wfs","acquired_at":"2026-08-30T18:51:42.205191+00:00"},{"type":"Feature","feature_key":"TN0435b","properties":{"OBJECTID":585,"SECTOR_NAM":"SOUTH TAMILNADU","SECTOR_ID":"SEC006","DIST_NAME":"Virudunagar","LC_NAME":"Villundi","LC_UNIQUE_":"TN0435b","LONGITUDE":79.26,"LATITUDE":9.29,"FORECAST_I":0,"UPDATED_DA":null,"FORECAST_D":null,"VALIDITY_D":null,"DIRECTION":"","BEARING":0,"DISTANCE_F":0,"DISTANCE_T":0,"DEPTH_FROM":0,"DEPTH_TO":0,"LONGITUDE_":0,"LONGITUDE1":0,"LONGITUD_1":0,"LONGITUD_2":"","LATITUDE_D":0,"LATITUDE_M":0,"LATITUDE_S":0,"LATITUDE_1":"","STATUS":"NO","MARINE_FIS":1},"geometry":{"type":"Point","coordinates":[79.26000214,9.28999996]},"source_id":"incois_wfs","acquired_at":"2026-08-30T18:51:42.205191+00:00"},{"type":"Feature","feature_key":"TN0414a","properties":{"OBJECTID":586,"SECTOR_NAM":"SOUTH TAMILNADU","SECTOR_ID":"SEC006","DIST_NAME":"Virudunagar","LC_NAME":"Thangachimadam","LC_UNIQUE_":"TN0414a","LONGITUDE":79.26,"LATITUDE":9.29,"FORECAST_I":0,"UPDATED_DA":null,"FORECAST_D":null,"VALIDITY_D":null,"DIRECTION":"","BEARING":0,"DISTANCE_F":0,"DISTANCE_T":0,"DEPTH_FROM":0,"DEPTH_TO":0,"LONGITUDE_":0,"LONGITUDE1":0,"LONGITUD_1":0,"LONGITUD_2":"","LATITUDE_D":0,"LATITUDE_M":0,"LATITUDE_S":0,"LATITUDE_1":"","STATUS":"NO","MARINE_FIS":1},"geometry":{"type":"Point","coordinates":[79.26000214,9.28999996]},"source_id":"incois_wfs","acquired_at":"2026-08-30T18:51:42.205191+00:00"},{"type":"Feature","feature_key":"TN0436b","properties":{"OBJECTID":587,"SECTOR_NAM":"SOUTH TAMILNADU","SECTOR_ID":"SEC006","DIST_NAME":"Virudunagar","LC_NAME":"Pamban Light House","LC_UNIQUE_":"TN0436b","LONGITUDE":79.22,"LATITUDE":9.29,"FORECAST_I":0,"UPDATED_DA":null,"FORECAST_D":null,"VALIDITY_D":null,"DIRECTION":"","BEARING":0,"DISTANCE_F":0,"DISTANCE_T":0,"DEPTH_FROM":0,"DEPTH_TO":0,"LONGITUDE_":0,"LONGITUDE1":0,"LONGITUD_1":0,"LONGITUD_2":"","LATITUDE_D":0,"LATITUDE_M":0,"LATITUDE_S":0,"LATITUDE_1":"","STATUS":"NO","MARINE_FIS":1},"geometry":{"type":"Point","coordinates":[79.22000122,9.28999996]},"source_id":"incois_wfs","acquired_at":"2026-08-30T18:51:42.205191+00:00"},{"type":"Feature","feature_key":"TN0437b","properties":{"OBJECTID":588,"SECTOR_NAM":"SOUTH TAMILNADU","SECTOR_ID":"SEC006","DIST_NAME":"Ramanathapuram","LC_NAME":"Mandpam (North)","LC_UNIQUE_":"TN0437b","LONGITUDE":79.15,"LATITUDE":9.29,"FORECAST_I":0,"UPDATED_DA":null,"FORECAST_D":null,"VALIDITY_D":null,"DIRECTION":"","BEARING":0,"DISTANCE_F":0,"DISTANCE_T":0,"DEPTH_FROM":0,"DEPTH_TO":0,"LONGITUDE_":0,"LONGITUDE1":0,"LONGITUD_1":0,"LONGITUD_2":"","LATITUDE_D":0,"LATITUDE_M":0,"LATITUDE_S":0,"LATITUDE_1":"","STATUS":"NO","MARINE_FIS":1},"geometry":{"type":"Point","coordinates":[79.15000153,9.28999996]},"source_id":"incois_wfs","acquired_at":"2026-08-30T18:51:42.205191+00:00"},{"type":"Feature","feature_key":"TN0438b","properties":{"OBJECTID":589,"SECTOR_NAM":"SOUTH TAMILNADU","SECTOR_ID":"SEC006","DIST_NAME":"Ramanathapuram","LC_NAME":"Munaikadu","LC_UNIQUE_":"TN0438b","LONGITUDE":79.14,"LATITUDE":9.29,"FORECAST_I":0,"UPDATED_DA":null,"FORECAST_D":null,"VALIDITY_D":null,"DIRECTION":"","BEARING":0,"DISTANCE_F":0,"DISTANCE_T":0,"DEPTH_FROM":0,"DEPTH_TO":0,"LONGITUDE_":0,"LONGITUDE1":0,"LONGITUD_1":0,"LONGITUD_2":"","LATITUDE_D":0,"LATITUDE_M":0,"LATITUDE_S":0,"LATITUDE_1":"","STATUS":"NO","MARINE_FIS":1},"geometry":{"type":"Point","coordinates":[79.13999939,9.28999996]},"source_id":"incois_wfs","acquired_at":"2026-08-30T18:51:42.205191+00:00"},{"type":"Feature","feature_key":"TN0439b","properties":{"OBJECTID":590,"SECTOR_NAM":"SOUTH TAMILNADU","SECTOR_ID":"SEC006","DIST_NAME":"Ramanathapuram","LC_NAME":"Atrangarai","LC_UNIQUE_":"TN0439b","LONGITUDE":78.99,"LATITUDE":9.35,"FORECAST_I":0,"UPDATED_DA":null,"FORECAST_D":null,"VALIDITY_D":null,"DIRECTION":"","BEARING":0,"DISTANCE_F":0,"DISTANCE_T":0,"DEPTH_FROM":0,"DEPTH_TO":0,"LONGITUDE_":0,"LONGITUDE1":0,"LONGITUD_1":0,"LONGITUD_2":"","LATITUDE_D":0,"LATITUDE_M":0,"LATITUDE_S":0,"LATITUDE_1":"","STATUS":"NO","MARINE_FIS":1},"geometry":{"type":"Point","coordinates":[78.98999786,9.35000038]},"source_id":"incois_wfs","acquired_at":"2026-08-30T18:51:42.205191+00:00"},{"type":"Feature","feature_key":"TN0440b","properties":{"OBJECTID":591,"SECTOR_NAM":"SOUTH TAMILNADU","SECTOR_ID":"SEC006","DIST_NAME":"Ramanathapuram","LC_NAME":"Alagankulam","LC_UNIQUE_":"TN0440b","LONGITUDE":78.98,"LATITUDE":9.37,"FORECAST_I":0,"UPDATED_DA":null,"FORECAST_D":null,"VALIDITY_D":null,"DIRECTION":"","BEARING":0,"DISTANCE_F":0,"DISTANCE_T":0,"DEPTH_FROM":0,"DEPTH_TO":0,"LONGITUDE_":0,"LONGITUDE1":0,"LONGITUD_1":0,"LONGITUD_2":"","LATITUDE_D":0,"LATITUDE_M":0,"LATITUDE_S":0,"LATITUDE_1":"","STATUS":"NO","MARINE_FIS":1},"geometry":{"type":"Point","coordinates":[78.98000336,9.36999989]},"source_id":"incois_wfs","acquired_at":"2026-08-30T18:51:42.205191+00:00"},{"type":"Feature","feature_key":"TN0441b","properties":{"OBJECTID":592,"SECTOR_NAM":"SOUTH TAMILNADU","SECTOR_ID":"SEC006","DIST_NAME":"Ramanathapuram","LC_NAME":"Pudukkudi","LC_UNIQUE_":"TN0441b","LONGITUDE":78.97,"LATITUDE":9.38,"FORECAST_I":0,"UPDATED_DA":null,"FORECAST_D":null,"VALIDITY_D":null,"DIRECTION":"","BEARING":0,"DISTANCE_F":0,"DISTANCE_T":0,"DEPTH_FROM":0,"DEPTH_TO":0,"LONGITUDE_":0,"LONGITUDE1":0,"LONGITUD_1":0,"LONGITUD_2":"","LATITUDE_D":0,"LATITUDE_M":0,"LATITUDE_S":0,"LATITUDE_1":"","STATUS":"NO","MARINE_FIS":1},"geometry":{"type":"Point","coordinates":[78.97000122,9.38000011]},"source_id":"incois_wfs","acquired_at":"2026-08-30T18:51:42.205191+00:00"},{"type":"Feature","feature_key":"TN0442b","properties":{"OBJECTID":593,"SECTOR_NAM":"SOUTH TAMILNADU","SECTOR_ID":"SEC006","DIST_NAME":"Ramanathapuram","LC_NAME":"Panaikulam","LC_UNIQUE_":"TN0442b","LONGITUDE":78.96,"LATITUDE":9.38,"FORECAST_I":0,"UPDATED_DA":null,"FORECAST_D":null,"VALIDITY_D":null,"DIRECTION":"","BEARING":0,"DISTANCE_F":0,"DISTANCE_T":0,"DEPTH_FROM":0,"DEPTH_TO":0,"LONGITUDE_":0,"LONGITUDE1":0,"LONGITUD_1":0,"LONGITUD_2":"","LATITUDE_D":0,"LATITUDE_M":0,"LATITUDE_S":0,"LATITUDE_1":"","STATUS":"NO","MARINE_FIS":1},"geometry":{"type":"Point","coordinates":[78.95999908,9.38000011]},"source_id":"incois_wfs","acquired_at":"2026-08-30T18:51:42.205191+00:00"},{"type":"Feature","feature_key":"TN0443b","properties":{"OBJECTID":594,"SECTOR_NAM":"SOUTH TAMILNADU","SECTOR_ID":"SEC006","DIST_NAME":"Ramanathapuram","LC_NAME":"Pudhuvalasaichathiram","LC_UNIQUE_":"TN0443b","LONGITUDE":78.95,"LATITUDE":9.4,"FORECAST_I":0,"UPDATED_DA":null,"FORECAST_D":null,"VALIDITY_D":null,"DIRECTION":"","BEARING":0,"DISTANCE_F":0,"DISTANCE_T":0,"DEPTH_FROM":0,"DEPTH_TO":0,"LONGITUDE_":0,"LONGITUDE1":0,"LONGITUD_1":0,"LONGITUD_2":"","LATITUDE_D":0,"LATITUDE_M":0,"LATITUDE_S":0,"LATITUDE_1":"","STATUS":"NO","MARINE_FIS":1},"geometry":{"type":"Point","coordinates":[78.94999695,9.39999962]},"source_id":"incois_wfs","acquired_at":"2026-08-30T18:51:42.205191+00:00"},{"type":"Feature","feature_key":"TN0444b","properties":{"OBJECTID":595,"SECTOR_NAM":"SOUTH TAMILNADU","SECTOR_ID":"SEC006","DIST_NAME":"Ramanathapuram","LC_NAME":"Palanivalasai","LC_UNIQUE_":"TN0444b","LONGITUDE":78.93,"LATITUDE":9.42,"FORECAST_I":0,"UPDATED_DA":null,"FORECAST_D":null,"VALIDITY_D":null,"DIRECTION":"","BEARING":0,"DISTANCE_F":0,"DISTANCE_T":0,"DEPTH_FROM":0,"DEPTH_TO":0,"LONGITUDE_":0,"LONGITUDE1":0,"LONGITUD_1":0,"LONGITUD_2":"","LATITUDE_D":0,"LATITUDE_M":0,"LATITUDE_S":0,"LATITUDE_1":"","STATUS":"NO","MARINE_FIS":1},"geometry":{"type":"Point","coordinates":[78.93000031,9.42000008]},"source_id":"incois_wfs","acquired_at":"2026-08-30T18:51:42.205191+00:00"},{"type":"Feature","feature_key":"TN0445b","properties":{"OBJECTID":596,"SECTOR_NAM":"SOUTH TAMILNADU","SECTOR_ID":"SEC006","DIST_NAME":"Ramanathapuram","LC_NAME":"Mudiveeranpattinam","LC_UNIQUE_":"TN0445b","LONGITUDE":78.92,"LATITUDE":9.43,"FORECAST_I":0,"UPDATED_DA":null,"FORECAST_D":null,"VALIDITY_D":null,"DIRECTION":"","BEARING":0,"DISTANCE_F":0,"DISTANCE_T":0,"DEPTH_FROM":0,"DEPTH_TO":0,"LONGITUDE_":0,"LONGITUDE1":0,"LONGITUD_1":0,"LONGITUD_2":"","LATITUDE_D":0,"LATITUDE_M":0,"LATITUDE_S":0,"LATITUDE_1":"","STATUS":"NO","MARINE_FIS":1},"geometry":{"type":"Point","coordinates":[78.91999817,9.43000031]},"source_id":"incois_wfs","acquired_at":"2026-08-30T18:51:42.205191+00:00"},{"type":"Feature","feature_key":"TN0446b","properties":{"OBJECTID":597,"SECTOR_NAM":"SOUTH TAMILNADU","SECTOR_ID":"SEC006","DIST_NAME":"Ramanathapuram","LC_NAME":"Devipattinam South","LC_UNIQUE_":"TN0446b","LONGITUDE":78.9,"LATITUDE":9.47,"FORECAST_I":0,"UPDATED_DA":null,"FORECAST_D":null,"VALIDITY_D":null,"DIRECTION":"","BEARING":0,"DISTANCE_F":0,"DISTANCE_T":0,"DEPTH_FROM":0,"DEPTH_TO":0,"LONGITUDE_":0,"LONGITUDE1":0,"LONGITUD_1":0,"LONGITUD_2":"","LATITUDE_D":0,"LATITUDE_M":0,"LATITUDE_S":0,"LATITUDE_1":"","STATUS":"NO","MARINE_FIS":1},"geometry":{"type":"Point","coordinates":[78.90000153,9.47000027]},"source_id":"incois_wfs","acquired_at":"2026-08-30T18:51:42.205191+00:00"},{"type":"Feature","feature_key":"TN0418a","properties":{"OBJECTID":598,"SECTOR_NAM":"SOUTH TAMILNADU","SECTOR_ID":"SEC006","DIST_NAME":"Ramanathapuram","LC_NAME":"Devipattinam","LC_UNIQUE_":"TN0418a","LONGITUDE":78.9,"LATITUDE":9.48,"FORECAST_I":0,"UPDATED_DA":null,"FORECAST_D":null,"VALIDITY_D":null,"DIRECTION":"","BEARING":0,"DISTANCE_F":0,"DISTANCE_T":0,"DEPTH_FROM":0,"DEPTH_TO":0,"LONGITUDE_":0,"LONGITUDE1":0,"LONGITUD_1":0,"LONGITUD_2":"","LATITUDE_D":0,"LATITUDE_M":0,"LATITUDE_S":0,"LATITUDE_1":"","STATUS":"NO","MARINE_FIS":1},"geometry":{"type":"Point","coordinates":[78.90000153,9.47999954]},"source_id":"incois_wfs","acquired_at":"2026-08-30T18:51:42.205191+00:00"},{"type":"Feature","feature_key":"TN0447b","properties":{"OBJECTID":599,"SECTOR_NAM":"SOUTH TAMILNADU","SECTOR_ID":"SEC006","DIST_NAME":"Ramanathapuram","LC_NAME":"Pathanendal","LC_UNIQUE_":"TN0447b","LONGITUDE":78.92,"LATITUDE":9.51,"FORECAST_I":0,"UPDATED_DA":null,"FORECAST_D":null,"VALIDITY_D":null,"DIRECTION":"","BEARING":0,"DISTANCE_F":0,"DISTANCE_T":0,"DEPTH_FROM":0,"DEPTH_TO":0,"LONGITUDE_":0,"LONGITUDE1":0,"LONGITUD_1":0,"LONGITUD_2":"","LATITUDE_D":0,"LATITUDE_M":0,"LATITUDE_S":0,"LATITUDE_1":"","STATUS":"NO","MARINE_FIS":1},"geometry":{"type":"Point","coordinates":[78.91999817,9.51000023]},"source_id":"incois_wfs","acquired_at":"2026-08-30T18:51:42.205191+00:00"},{"type":"Feature","feature_key":"TN0448b","properties":{"OBJECTID":600,"SECTOR_NAM":"SOUTH TAMILNADU","SECTOR_ID":"SEC006","DIST_NAME":"Ramanathapuram","LC_NAME":"Thirupalaikudi North","LC_UNIQUE_":"TN0448b","LONGITUDE":78.92,"LATITUDE":9.55,"FORECAST_I":0,"UPDATED_DA":null,"FORECAST_D":null,"VALIDITY_D":null,"DIRECTION":"","BEARING":0,"DISTANCE_F":0,"DISTANCE_T":0,"DEPTH_FROM":0,"DEPTH_TO":0,"LONGITUDE_":0,"LONGITUDE1":0,"LONGITUD_1":0,"LONGITUD_2":"","LATITUDE_D":0,"LATITUDE_M":0,"LATITUDE_S":0,"LATITUDE_1":"","STATUS":"NO","MARINE_FIS":1},"geometry":{"type":"Point","coordinates":[78.91999817,9.55000019]},"source_id":"incois_wfs","acquired_at":"2026-08-30T18:51:42.205191+00:00"},{"type":"Feature","feature_key":"TN0419a","properties":{"OBJECTID":601,"SECTOR_NAM":"SOUTH TAMILNADU","SECTOR_ID":"SEC006","DIST_NAME":"Ramanathapuram","LC_NAME":"Moreppanai","LC_UNIQUE_":"TN0419a","LONGITUDE":78.94,"LATITUDE":9.61,"FORECAST_I":0,"UPDATED_DA":null,"FORECAST_D":null,"VALIDITY_D":null,"DIRECTION":"","BEARING":0,"DISTANCE_F":0,"DISTANCE_T":0,"DEPTH_FROM":0,"DEPTH_TO":0,"LONGITUDE_":0,"LONGITUDE1":0,"LONGITUD_1":0,"LONGITUD_2":"","LATITUDE_D":0,"LATITUDE_M":0,"LATITUDE_S":0,"LATITUDE_1":"","STATUS":"NO","MARINE_FIS":1},"geometry":{"type":"Point","coordinates":[78.94000244,9.60999966]},"source_id":"incois_wfs","acquired_at":"2026-08-30T18:51:42.205191+00:00"},{"type":"Feature","feature_key":"TN0449b","properties":{"OBJECTID":602,"SECTOR_NAM":"SOUTH TAMILNADU","SECTOR_ID":"SEC006","DIST_NAME":"Ramanathapuram","LC_NAME":"Karankadu","LC_UNIQUE_":"TN0449b","LONGITUDE":78.96,"LATITUDE":9.64,"FORECAST_I":0,"UPDATED_DA":null,"FORECAST_D":null,"VALIDITY_D":null,"DIRECTION":"","BEARING":0,"DISTANCE_F":0,"DISTANCE_T":0,"DEPTH_FROM":0,"DEPTH_TO":0,"LONGITUDE_":0,"LONGITUDE1":0,"LONGITUD_1":0,"LONGITUD_2":"","LATITUDE_D":0,"LATITUDE_M":0,"LATITUDE_S":0,"LATITUDE_1":"","STATUS":"NO","MARINE_FIS":1},"geometry":{"type":"Point","coordinates":[78.95999908,9.64000034]},"source_id":"incois_wfs","acquired_at":"2026-08-30T18:51:42.205191+00:00"},{"type":"Feature","feature_key":"TN0450b","properties":{"OBJECTID":603,"SECTOR_NAM":"SOUTH TAMILNADU","SECTOR_ID":"SEC006","DIST_NAME":"Ramanathapuram","LC_NAME":"Mullimanai","LC_UNIQUE_":"TN0450b","LONGITUDE":78.97,"LATITUDE":9.66,"FORECAST_I":0,"UPDATED_DA":null,"FORECAST_D":null,"VALIDITY_D":null,"DIRECTION":"","BEARING":0,"DISTANCE_F":0,"DISTANCE_T":0,"DEPTH_FROM":0,"DEPTH_TO":0,"LONGITUDE_":0,"LONGITUDE1":0,"LONGITUD_1":0,"LONGITUD_2":"","LATITUDE_D":0,"LATITUDE_M":0,"LATITUDE_S":0,"LATITUDE_1":"","STATUS":"NO","MARINE_FIS":1},"geometry":{"type":"Point","coordinates":[78.97000122,9.65999985]},"source_id":"incois_wfs","acquired_at":"2026-08-30T18:51:42.205191+00:00"},{"type":"Feature","feature_key":"TN0451b","properties":{"OBJECTID":604,"SECTOR_NAM":"SOUTH TAMILNADU","SECTOR_ID":"SEC006","DIST_NAME":"Ramanathapuram","LC_NAME":"Pudhupattinam","LC_UNIQUE_":"TN0451b","LONGITUDE":78.98,"LATITUDE":9.68,"FORECAST_I":0,"UPDATED_DA":null,"FORECAST_D":null,"VALIDITY_D":null,"DIRECTION":"","BEARING":0,"DISTANCE_F":0,"DISTANCE_T":0,"DEPTH_FROM":0,"DEPTH_TO":0,"LONGITUDE_":0,"LONGITUDE1":0,"LONGITUD_1":0,"LONGITUD_2":"","LATITUDE_D":0,"LATITUDE_M":0,"LATITUDE_S":0,"LATITUDE_1":"","STATUS":"NO","MARINE_FIS":1},"geometry":{"type":"Point","coordinates":[78.98000336,9.68000031]},"source_id":"incois_wfs","acquired_at":"2026-08-30T18:51:42.205191+00:00"},{"type":"Feature","feature_key":"TN0420a","properties":{"OBJECTID":605,"SECTOR_NAM":"SOUTH TAMILNADU","SECTOR_ID":"SEC006","DIST_NAME":"Ramanathapuram","LC_NAME":"Tiruvettriyur","LC_UNIQUE_":"TN0420a","LONGITUDE":78.99,"LATITUDE":9.7,"FORECAST_I":0,"UPDATED_DA":null,"FORECAST_D":null,"VALIDITY_D":null,"DIRECTION":"","BEARING":0,"DISTANCE_F":0,"DISTANCE_T":0,"DEPTH_FROM":0,"DEPTH_TO":0,"LONGITUDE_":0,"LONGITUDE1":0,"LONGITUD_1":0,"LONGITUD_2":"","LATITUDE_D":0,"LATITUDE_M":0,"LATITUDE_S":0,"LATITUDE_1":"","STATUS":"NO","MARINE_FIS":1},"geometry":{"type":"Point","coordinates":[78.98999786,9.69999981]},"source_id":"incois_wfs","acquired_at":"2026-08-30T18:51:42.205191+00:00"},{"type":"Feature","feature_key":"TN0452b","properties":{"OBJECTID":606,"SECTOR_NAM":"SOUTH TAMILNADU","SECTOR_ID":"SEC006","DIST_NAME":"Ramanathapuram","LC_NAME":"Soliyakudi Harbour","LC_UNIQUE_":"TN0452b","LONGITUDE":78.99,"LATITUDE":9.71,"FORECAST_I":0,"UPDATED_DA":null,"FORECAST_D":null,"VALIDITY_D":null,"DIRECTION":"","BEARING":0,"DISTANCE_F":0,"DISTANCE_T":0,"DEPTH_FROM":0,"DEPTH_TO":0,"LONGITUDE_":0,"LONGITUDE1":0,"LONGITUD_1":0,"LONGITUD_2":"","LATITUDE_D":0,"LATITUDE_M":0,"LATITUDE_S":0,"LATITUDE_1":"","STATUS":"NO","MARINE_FIS":1},"geometry":{"type":"Point","coordinates":[78.98999786,9.71000004]},"source_id":"incois_wfs","acquired_at":"2026-08-30T18:51:42.205191+00:00"},{"type":"Feature","feature_key":"TN0453b","properties":{"OBJECTID":607,"SECTOR_NAM":"SOUTH TAMILNADU","SECTOR_ID":"SEC006","DIST_NAME":"Ramanathapuram","LC_NAME":"Nambuthalai","LC_UNIQUE_":"TN0453b","LONGITUDE":79.01,"LATITUDE":9.72,"FORECAST_I":0,"UPDATED_DA":null,"FORECAST_D":null,"VALIDITY_D":null,"DIRECTION":"","BEARING":0,"DISTANCE_F":0,"DISTANCE_T":0,"DEPTH_FROM":0,"DEPTH_TO":0,"LONGITUDE_":0,"LONGITUDE1":0,"LONGITUD_1":0,"LONGITUD_2":"","LATITUDE_D":0,"LATITUDE_M":0,"LATITUDE_S":0,"LATITUDE_1":"","STATUS":"NO","MARINE_FIS":1},"geometry":{"type":"Point","coordinates":[79.01000214,9.72000027]},"source_id":"incois_wfs","acquired_at":"2026-08-30T18:51:42.205191+00:00"},{"type":"Feature","feature_key":"TN0421a","properties":{"OBJECTID":608,"SECTOR_NAM":"SOUTH TAMILNADU","SECTOR_ID":"SEC006","DIST_NAME":"Ramanathapuram","LC_NAME":"Tondi","LC_UNIQUE_":"TN0421a","LONGITUDE":79.02,"LATITUDE":9.74,"FORECAST_I":0,"UPDATED_DA":null,"FORECAST_D":null,"VALIDITY_D":null,"DIRECTION":"","BEARING":0,"DISTANCE_F":0,"DISTANCE_T":0,"DEPTH_FROM":0,"DEPTH_TO":0,"LONGITUDE_":0,"LONGITUDE1":0,"LONGITUD_1":0,"LONGITUD_2":"","LATITUDE_D":0,"LATITUDE_M":0,"LATITUDE_S":0,"LATITUDE_1":"","STATUS":"NO","MARINE_FIS":1},"geometry":{"type":"Point","coordinates":[79.01999664,9.73999977]},"source_id":"incois_wfs","acquired_at":"2026-08-30T18:51:42.205191+00:00"},{"type":"Feature","feature_key":"TN0454b","properties":{"OBJECTID":609,"SECTOR_NAM":"SOUTH TAMILNADU","SECTOR_ID":"SEC006","DIST_NAME":"Ramanathapuram","LC_NAME":"M.R.Pattinam","LC_UNIQUE_":"TN0454b","LONGITUDE":79.04,"LATITUDE":9.76,"FORECAST_I":0,"UPDATED_DA":null,"FORECAST_D":null,"VALIDITY_D":null,"DIRECTION":"","BEARING":0,"DISTANCE_F":0,"DISTANCE_T":0,"DEPTH_FROM":0,"DEPTH_TO":0,"LONGITUDE_":0,"LONGITUDE1":0,"LONGITUD_1":0,"LONGITUD_2":"","LATITUDE_D":0,"LATITUDE_M":0,"LATITUDE_S":0,"LATITUDE_1":"","STATUS":"NO","MARINE_FIS":1},"geometry":{"type":"Point","coordinates":[79.04000092,9.76000023]},"source_id":"incois_wfs","acquired_at":"2026-08-30T18:51:42.205191+00:00"},{"type":"Feature","feature_key":"TN0455b","properties":{"OBJECTID":610,"SECTOR_NAM":"SOUTH TAMILNADU","SECTOR_ID":"SEC006","DIST_NAME":"Ramanathapuram","LC_NAME":"Valasapatinam(P.V.Pattinam","LC_UNIQUE_":"TN0455b","LONGITUDE":79.04,"LATITUDE":9.77,"FORECAST_I":0,"UPDATED_DA":null,"FORECAST_D":null,"VALIDITY_D":null,"DIRECTION":"","BEARING":0,"DISTANCE_F":0,"DISTANCE_T":0,"DEPTH_FROM":0,"DEPTH_TO":0,"LONGITUDE_":0,"LONGITUDE1":0,"LONGITUD_1":0,"LONGITUD_2":"","LATITUDE_D":0,"LATITUDE_M":0,"LATITUDE_S":0,"LATITUDE_1":"","STATUS":"NO","MARINE_FIS":1},"geometry":{"type":"Point","coordinates":[79.04000092,9.77000046]},"source_id":"incois_wfs","acquired_at":"2026-08-30T18:51:42.205191+00:00"},{"type":"Feature","feature_key":"TN0456b","properties":{"OBJECTID":611,"SECTOR_NAM":"SOUTH TAMILNADU","SECTOR_ID":"SEC006","DIST_NAME":"Ramanathapuram","LC_NAME":"Narendhal","LC_UNIQUE_":"TN0456b","LONGITUDE":79.05,"LATITUDE":9.77,"FORECAST_I":0,"UPDATED_DA":null,"FORECAST_D":null,"VALIDITY_D":null,"DIRECTION":"","BEARING":0,"DISTANCE_F":0,"DISTANCE_T":0,"DEPTH_FROM":0,"DEPTH_TO":0,"LONGITUDE_":0,"LONGITUDE1":0,"LONGITUD_1":0,"LONGITUD_2":"","LATITUDE_D":0,"LATITUDE_M":0,"LATITUDE_S":0,"LATITUDE_1":"","STATUS":"NO","MARINE_FIS":1},"geometry":{"type":"Point","coordinates":[79.05000305,9.77000046]},"source_id":"incois_wfs","acquired_at":"2026-08-30T18:51:42.205191+00:00"},{"type":"Feature","feature_key":"TN0457b","properties":{"OBJECTID":612,"SECTOR_NAM":"SOUTH TAMILNADU","SECTOR_ID":"SEC006","DIST_NAME":"Ramanathapuram","LC_NAME":"Dhamotharanpattinam","LC_UNIQUE_":"TN0457b","LONGITUDE":79.07,"LATITUDE":9.79,"FORECAST_I":0,"UPDATED_DA":null,"FORECAST_D":null,"VALIDITY_D":null,"DIRECTION":"","BEARING":0,"DISTANCE_F":0,"DISTANCE_T":0,"DEPTH_FROM":0,"DEPTH_TO":0,"LONGITUDE_":0,"LONGITUDE1":0,"LONGITUD_1":0,"LONGITUD_2":"","LATITUDE_D":0,"LATITUDE_M":0,"LATITUDE_S":0,"LATITUDE_1":"","STATUS":"NO","MARINE_FIS":1},"geometry":{"type":"Point","coordinates":[79.06999969,9.78999996]},"source_id":"incois_wfs","acquired_at":"2026-08-30T18:51:42.205191+00:00"},{"type":"Feature","feature_key":"TN0458b","properties":{"OBJECTID":613,"SECTOR_NAM":"SOUTH TAMILNADU","SECTOR_ID":"SEC006","DIST_NAME":"Ramanathapuram","LC_NAME":"Pasipattinam","LC_UNIQUE_":"TN0458b","LONGITUDE":79.08,"LATITUDE":9.81,"FORECAST_I":0,"UPDATED_DA":null,"FORECAST_D":null,"VALIDITY_D":null,"DIRECTION":"","BEARING":0,"DISTANCE_F":0,"DISTANCE_T":0,"DEPTH_FROM":0,"DEPTH_TO":0,"LONGITUDE_":0,"LONGITUDE1":0,"LONGITUD_1":0,"LONGITUD_2":"","LATITUDE_D":0,"LATITUDE_M":0,"LATITUDE_S":0,"LATITUDE_1":"","STATUS":"NO","MARINE_FIS":1},"geometry":{"type":"Point","coordinates":[79.08000183,9.81000042]},"source_id":"incois_wfs","acquired_at":"2026-08-30T18:51:42.205191+00:00"},{"type":"Feature","feature_key":"TN0459b","properties":{"OBJECTID":614,"SECTOR_NAM":"SOUTH TAMILNADU","SECTOR_ID":"SEC006","DIST_NAME":"Ramanathapuram","LC_NAME":"Theerthaandathanam","LC_UNIQUE_":"TN0459b","LONGITUDE":79.09,"LATITUDE":9.83,"FORECAST_I":0,"UPDATED_DA":null,"FORECAST_D":null,"VALIDITY_D":null,"DIRECTION":"","BEARING":0,"DISTANCE_F":0,"DISTANCE_T":0,"DEPTH_FROM":0,"DEPTH_TO":0,"LONGITUDE_":0,"LONGITUDE1":0,"LONGITUD_1":0,"LONGITUD_2":"","LATITUDE_D":0,"LATITUDE_M":0,"LATITUDE_S":0,"LATITUDE_1":"","STATUS":"NO","MARINE_FIS":1},"geometry":{"type":"Point","coordinates":[79.08999634,9.82999992]},"source_id":"incois_wfs","acquired_at":"2026-08-30T18:51:42.205191+00:00"},{"type":"Feature","feature_key":"TN0501a","properties":{"OBJECTID":615,"SECTOR_NAM":"SOUTH TAMILNADU","SECTOR_ID":"SEC006","DIST_NAME":"Ramanathapuram","LC_NAME":"Sundarapandiyanpatta","LC_UNIQUE_":"TN0501a","LONGITUDE":79.1,"LATITUDE":9.84,"FORECAST_I":0,"UPDATED_DA":null,"FORECAST_D":null,"VALIDITY_D":null,"DIRECTION":"","BEARING":0,"DISTANCE_F":0,"DISTANCE_T":0,"DEPTH_FROM":0,"DEPTH_TO":0,"LONGITUDE_":0,"LONGITUDE1":0,"LONGITUD_1":0,"LONGITUD_2":"","LATITUDE_D":0,"LATITUDE_M":0,"LATITUDE_S":0,"LATITUDE_1":"","STATUS":"NO","MARINE_FIS":1},"geometry":{"type":"Point","coordinates":[79.09999847,9.84000015]},"source_id":"incois_wfs","acquired_at":"2026-08-30T18:51:42.205191+00:00"},{"type":"Feature","feature_key":"TN0505b","properties":{"OBJECTID":616,"SECTOR_NAM":"SOUTH TAMILNADU","SECTOR_ID":"SEC006","DIST_NAME":"Pudukkottai","LC_NAME":"Muthukuda","LC_UNIQUE_":"TN0505b","LONGITUDE":79.12,"LATITUDE":9.87,"FORECAST_I":0,"UPDATED_DA":null,"FORECAST_D":null,"VALIDITY_D":null,"DIRECTION":"","BEARING":0,"DISTANCE_F":0,"DISTANCE_T":0,"DEPTH_FROM":0,"DEPTH_TO":0,"LONGITUDE_":0,"LONGITUDE1":0,"LONGITUD_1":0,"LONGITUD_2":"","LATITUDE_D":0,"LATITUDE_M":0,"LATITUDE_S":0,"LATITUDE_1":"","STATUS":"NO","MARINE_FIS":1},"geometry":{"type":"Point","coordinates":[79.12000275,9.86999989]},"source_id":"incois_wfs","acquired_at":"2026-08-30T18:51:42.205191+00:00"},{"type":"Feature","feature_key":"TN0506b","properties":{"OBJECTID":617,"SECTOR_NAM":"SOUTH TAMILNADU","SECTOR_ID":"SEC006","DIST_NAME":"Pudukkottai","LC_NAME":"R.Pudhupattinam","LC_UNIQUE_":"TN0506b","LONGITUDE":79.14,"LATITUDE":9.91,"FORECAST_I":0,"UPDATED_DA":null,"FORECAST_D":null,"VALIDITY_D":null,"DIRECTION":"","BEARING":0,"DISTANCE_F":0,"DISTANCE_T":0,"DEPTH_FROM":0,"DEPTH_TO":0,"LONGITUDE_":0,"LONGITUDE1":0,"LONGITUD_1":0,"LONGITUD_2":"","LATITUDE_D":0,"LATITUDE_M":0,"LATITUDE_S":0,"LATITUDE_1":"","STATUS":"NO","MARINE_FIS":1},"geometry":{"type":"Point","coordinates":[79.13999939,9.90999985]},"source_id":"incois_wfs","acquired_at":"2026-08-30T18:51:42.205191+00:00"},{"type":"Feature","feature_key":"TN0507b","properties":{"OBJECTID":618,"SECTOR_NAM":"SOUTH TAMILNADU","SECTOR_ID":"SEC006","DIST_NAME":"Pudukkottai","LC_NAME":"Gopalapattinam","LC_UNIQUE_":"TN0507b","LONGITUDE":79.15,"LATITUDE":9.92,"FORECAST_I":0,"UPDATED_DA":null,"FORECAST_D":null,"VALIDITY_D":null,"DIRECTION":"","BEARING":0,"DISTANCE_F":0,"DISTANCE_T":0,"DEPTH_FROM":0,"DEPTH_TO":0,"LONGITUDE_":0,"LONGITUDE1":0,"LONGITUD_1":0,"LONGITUD_2":"","LATITUDE_D":0,"LATITUDE_M":0,"LATITUDE_S":0,"LATITUDE_1":"","STATUS":"NO","MARINE_FIS":1},"geometry":{"type":"Point","coordinates":[79.15000153,9.92000008]},"source_id":"incois_wfs","acquired_at":"2026-08-30T18:51:42.205191+00:00"},{"type":"Feature","feature_key":"TN0508b","properties":{"OBJECTID":619,"SECTOR_NAM":"SOUTH TAMILNADU","SECTOR_ID":"SEC006","DIST_NAME":"Pudukkottai","LC_NAME":"Muthanenthal","LC_UNIQUE_":"TN0508b","LONGITUDE":79.18,"LATITUDE":9.96,"FORECAST_I":0,"UPDATED_DA":null,"FORECAST_D":null,"VALIDITY_D":null,"DIRECTION":"","BEARING":0,"DISTANCE_F":0,"DISTANCE_T":0,"DEPTH_FROM":0,"DEPTH_TO":0,"LONGITUDE_":0,"LONGITUDE1":0,"LONGITUD_1":0,"LONGITUD_2":"","LATITUDE_D":0,"LATITUDE_M":0,"LATITUDE_S":0,"LATITUDE_1":"","STATUS":"NO","MARINE_FIS":1},"geometry":{"type":"Point","coordinates":[79.18000031,9.96000004]},"source_id":"incois_wfs","acquired_at":"2026-08-30T18:51:42.205191+00:00"},{"type":"Feature","feature_key":"TN0509b","properties":{"OBJECTID":620,"SECTOR_NAM":"SOUTH TAMILNADU","SECTOR_ID":"SEC006","DIST_NAME":"Pudukkottai","LC_NAME":"Ayyampattinam","LC_UNIQUE_":"TN0509b","LONGITUDE":79.18,"LATITUDE":9.96,"FORECAST_I":0,"UPDATED_DA":null,"FORECAST_D":null,"VALIDITY_D":null,"DIRECTION":"","BEARING":0,"DISTANCE_F":0,"DISTANCE_T":0,"DEPTH_FROM":0,"DEPTH_TO":0,"LONGITUDE_":0,"LONGITUDE1":0,"LONGITUD_1":0,"LONGITUD_2":"","LATITUDE_D":0,"LATITUDE_M":0,"LATITUDE_S":0,"LATITUDE_1":"","STATUS":"NO","MARINE_FIS":1},"geometry":{"type":"Point","coordinates":[79.18000031,9.96000004]},"source_id":"incois_wfs","acquired_at":"2026-08-30T18:51:42.205191+00:00"},{"type":"Feature","feature_key":"TN0503a","properties":{"OBJECTID":621,"SECTOR_NAM":"SOUTH TAMILNADU","SECTOR_ID":"SEC006","DIST_NAME":"Pudukkottai","LC_NAME":"Kottaippattanam","LC_UNIQUE_":"TN0503a","LONGITUDE":79.2,"LATITUDE":9.98,"FORECAST_I":0,"UPDATED_DA":null,"FORECAST_D":null,"VALIDITY_D":null,"DIRECTION":"","BEARING":0,"DISTANCE_F":0,"DISTANCE_T":0,"DEPTH_FROM":0,"DEPTH_TO":0,"LONGITUDE_":0,"LONGITUDE1":0,"LONGITUD_1":0,"LONGITUD_2":"","LATITUDE_D":0,"LATITUDE_M":0,"LATITUDE_S":0,"LATITUDE_1":"","STATUS":"NO","MARINE_FIS":1},"geometry":{"type":"Point","coordinates":[79.19999695,9.97999954]},"source_id":"incois_wfs","acquired_at":"2026-08-30T18:51:42.205191+00:00"},{"type":"Feature","feature_key":"TN0510b","properties":{"OBJECTID":622,"SECTOR_NAM":"SOUTH TAMILNADU","SECTOR_ID":"SEC006","DIST_NAME":"Pudukkottai","LC_NAME":"Pudhukkudi South","LC_UNIQUE_":"TN0510b","LONGITUDE":79.21,"LATITUDE":9.99,"FORECAST_I":0,"UPDATED_DA":null,"FORECAST_D":null,"VALIDITY_D":null,"DIRECTION":"","BEARING":0,"DISTANCE_F":0,"DISTANCE_T":0,"DEPTH_FROM":0,"DEPTH_TO":0,"LONGITUDE_":0,"LONGITUDE1":0,"LONGITUD_1":0,"LONGITUD_2":"","LATITUDE_D":0,"LATITUDE_M":0,"LATITUDE_S":0,"LATITUDE_1":"","STATUS":"NO","MARINE_FIS":1},"geometry":{"type":"Point","coordinates":[79.20999908,9.98999977]},"source_id":"incois_wfs","acquired_at":"2026-08-30T18:51:42.205191+00:00"},{"type":"Feature","feature_key":"TN0511b","properties":{"OBJECTID":623,"SECTOR_NAM":"SOUTH TAMILNADU","SECTOR_ID":"SEC006","DIST_NAME":"Pudukkottai","LC_NAME":"Pudhukkudi North","LC_UNIQUE_":"TN0511b","LONGITUDE":79.22,"LATITUDE":10,"FORECAST_I":0,"UPDATED_DA":null,"FORECAST_D":null,"VALIDITY_D":null,"DIRECTION":"","BEARING":0,"DISTANCE_F":0,"DISTANCE_T":0,"DEPTH_FROM":0,"DEPTH_TO":0,"LONGITUDE_":0,"LONGITUDE1":0,"LONGITUD_1":0,"LONGITUD_2":"","LATITUDE_D":0,"LATITUDE_M":0,"LATITUDE_S":0,"LATITUDE_1":"","STATUS":"NO","MARINE_FIS":1},"geometry":{"type":"Point","coordinates":[79.22000122,10]},"source_id":"incois_wfs","acquired_at":"2026-08-30T18:51:42.205191+00:00"},{"type":"Feature","feature_key":"TN0512b","properties":{"OBJECTID":624,"SECTOR_NAM":"SOUTH TAMILNADU","SECTOR_ID":"SEC006","DIST_NAME":"Pudukkottai","LC_NAME":"Anthoniyarpuram","LC_UNIQUE_":"TN0512b","LONGITUDE":79.24,"LATITUDE":10.02,"FORECAST_I":0,"UPDATED_DA":null,"FORECAST_D":null,"VALIDITY_D":null,"DIRECTION":"","BEARING":0,"DISTANCE_F":0,"DISTANCE_T":0,"DEPTH_FROM":0,"DEPTH_TO":0,"LONGITUDE_":0,"LONGITUDE1":0,"LONGITUD_1":0,"LONGITUD_2":"","LATITUDE_D":0,"LATITUDE_M":0,"LATITUDE_S":0,"LATITUDE_1":"","STATUS":"NO","MARINE_FIS":1},"geometry":{"type":"Point","coordinates":[79.23999786,10.02000046]},"source_id":"incois_wfs","acquired_at":"2026-08-30T18:51:42.205191+00:00"},{"type":"Feature","feature_key":"TN0513b","properties":{"OBJECTID":625,"SECTOR_NAM":"SOUTH TAMILNADU","SECTOR_ID":"SEC006","DIST_NAME":"Pudukkottai","LC_NAME":"Ponagaram","LC_UNIQUE_":"TN0513b","LONGITUDE":79.25,"LATITUDE":10.03,"FORECAST_I":0,"UPDATED_DA":null,"FORECAST_D":null,"VALIDITY_D":null,"DIRECTION":"","BEARING":0,"DISTANCE_F":0,"DISTANCE_T":0,"DEPTH_FROM":0,"DEPTH_TO":0,"LONGITUDE_":0,"LONGITUDE1":0,"LONGITUD_1":0,"LONGITUD_2":"","LATITUDE_D":0,"LATITUDE_M":0,"LATITUDE_S":0,"LATITUDE_1":"","STATUS":"NO","MARINE_FIS":1},"geometry":{"type":"Point","coordinates":[79.25,10.02999973]},"source_id":"incois_wfs","acquired_at":"2026-08-30T18:51:42.205191+00:00"},{"type":"Feature","feature_key":"TN0504a","properties":{"OBJECTID":626,"SECTOR_NAM":"SOUTH TAMILNADU","SECTOR_ID":"SEC006","DIST_NAME":"Pudukkottai","LC_NAME":"Manamelkudi","LC_UNIQUE_":"TN0504a","LONGITUDE":79.26,"LATITUDE":10.03,"FORECAST_I":0,"UPDATED_DA":null,"FORECAST_D":null,"VALIDITY_D":null,"DIRECTION":"","BEARING":0,"DISTANCE_F":0,"DISTANCE_T":0,"DEPTH_FROM":0,"DEPTH_TO":0,"LONGITUDE_":0,"LONGITUDE1":0,"LONGITUD_1":0,"LONGITUD_2":"","LATITUDE_D":0,"LATITUDE_M":0,"LATITUDE_S":0,"LATITUDE_1":"","STATUS":"NO","MARINE_FIS":1},"geometry":{"type":"Point","coordinates":[79.26000214,10.02999973]},"source_id":"incois_wfs","acquired_at":"2026-08-30T18:51:42.205191+00:00"},{"type":"Feature","feature_key":"TN0515b","properties":{"OBJECTID":627,"SECTOR_NAM":"SOUTH TAMILNADU","SECTOR_ID":"SEC006","DIST_NAME":"Pudukkottai","LC_NAME":"Keelakudiyiruppu","LC_UNIQUE_":"TN0515b","LONGITUDE":79.27,"LATITUDE":10.04,"FORECAST_I":0,"UPDATED_DA":null,"FORECAST_D":null,"VALIDITY_D":null,"DIRECTION":"","BEARING":0,"DISTANCE_F":0,"DISTANCE_T":0,"DEPTH_FROM":0,"DEPTH_TO":0,"LONGITUDE_":0,"LONGITUDE1":0,"LONGITUD_1":0,"LONGITUD_2":"","LATITUDE_D":0,"LATITUDE_M":0,"LATITUDE_S":0,"LATITUDE_1":"","STATUS":"NO","MARINE_FIS":1},"geometry":{"type":"Point","coordinates":[79.26999664,10.03999996]},"source_id":"incois_wfs","acquired_at":"2026-08-30T18:51:42.205191+00:00"},{"type":"Feature","feature_key":"TN0516b","properties":{"OBJECTID":628,"SECTOR_NAM":"SOUTH TAMILNADU","SECTOR_ID":"SEC006","DIST_NAME":"Pudukkottai","LC_NAME":"Vadakku Amapattinam","LC_UNIQUE_":"TN0516b","LONGITUDE":79.25,"LATITUDE":10.05,"FORECAST_I":0,"UPDATED_DA":null,"FORECAST_D":null,"VALIDITY_D":null,"DIRECTION":"","BEARING":0,"DISTANCE_F":0,"DISTANCE_T":0,"DEPTH_FROM":0,"DEPTH_TO":0,"LONGITUDE_":0,"LONGITUDE1":0,"LONGITUD_1":0,"LONGITUD_2":"","LATITUDE_D":0,"LATITUDE_M":0,"LATITUDE_S":0,"LATITUDE_1":"","STATUS":"NO","MARINE_FIS":1},"geometry":{"type":"Point","coordinates":[79.25,10.05000019]},"source_id":"incois_wfs","acquired_at":"2026-08-30T18:51:42.205191+00:00"},{"type":"Feature","feature_key":"TN0517b","properties":{"OBJECTID":629,"SECTOR_NAM":"SOUTH TAMILNADU","SECTOR_ID":"SEC006","DIST_NAME":"Pudukkottai","LC_NAME":"Seetharampattinam","LC_UNIQUE_":"TN0517b","LONGITUDE":79.24,"LATITUDE":10.08,"FORECAST_I":0,"UPDATED_DA":null,"FORECAST_D":null,"VALIDITY_D":null,"DIRECTION":"","BEARING":0,"DISTANCE_F":0,"DISTANCE_T":0,"DEPTH_FROM":0,"DEPTH_TO":0,"LONGITUDE_":0,"LONGITUDE1":0,"LONGITUD_1":0,"LONGITUD_2":"","LATITUDE_D":0,"LATITUDE_M":0,"LATITUDE_S":0,"LATITUDE_1":"","STATUS":"NO","MARINE_FIS":1},"geometry":{"type":"Point","coordinates":[79.23999786,10.07999992]},"source_id":"incois_wfs","acquired_at":"2026-08-30T18:51:42.205191+00:00"},{"type":"Feature","feature_key":"TN0518b","properties":{"OBJECTID":630,"SECTOR_NAM":"SOUTH TAMILNADU","SECTOR_ID":"SEC006","DIST_NAME":"Pudukkottai","LC_NAME":"Krishnajipattinam","LC_UNIQUE_":"TN0518b","LONGITUDE":79.23,"LATITUDE":10.1,"FORECAST_I":0,"UPDATED_DA":null,"FORECAST_D":null,"VALIDITY_D":null,"DIRECTION":"","BEARING":0,"DISTANCE_F":0,"DISTANCE_T":0,"DEPTH_FROM":0,"DEPTH_TO":0,"LONGITUDE_":0,"LONGITUDE1":0,"LONGITUD_1":0,"LONGITUD_2":"","LATITUDE_D":0,"LATITUDE_M":0,"LATITUDE_S":0,"LATITUDE_1":"","STATUS":"NO","MARINE_FIS":1},"geometry":{"type":"Point","coordinates":[79.23000336,10.10000038]},"source_id":"incois_wfs","acquired_at":"2026-08-30T18:51:42.205191+00:00"},{"type":"Feature","feature_key":"TN0519b","properties":{"OBJECTID":631,"SECTOR_NAM":"SOUTH TAMILNADU","SECTOR_ID":"SEC006","DIST_NAME":"Pudukkottai","LC_NAME":"Prathaparamanpattinam","LC_UNIQUE_":"TN0519b","LONGITUDE":79.23,"LATITUDE":10.12,"FORECAST_I":0,"UPDATED_DA":null,"FORECAST_D":null,"VALIDITY_D":null,"DIRECTION":"","BEARING":0,"DISTANCE_F":0,"DISTANCE_T":0,"DEPTH_FROM":0,"DEPTH_TO":0,"LONGITUDE_":0,"LONGITUDE1":0,"LONGITUD_1":0,"LONGITUD_2":"","LATITUDE_D":0,"LATITUDE_M":0,"LATITUDE_S":0,"LATITUDE_1":"","STATUS":"NO","MARINE_FIS":1},"geometry":{"type":"Point","coordinates":[79.23000336,10.11999989]},"source_id":"incois_wfs","acquired_at":"2026-08-30T18:51:42.205191+00:00"},{"type":"Feature","feature_key":"TN0823b","properties":{"OBJECTID":632,"SECTOR_NAM":"SOUTH TAMILNADU","SECTOR_ID":"SEC006","DIST_NAME":"Pudukkottai","LC_NAME":"Kattumavadi","LC_UNIQUE_":"TN0823b","LONGITUDE":79.23,"LATITUDE":10.13,"FORECAST_I":0,"UPDATED_DA":null,"FORECAST_D":null,"VALIDITY_D":null,"DIRECTION":"","BEARING":0,"DISTANCE_F":0,"DISTANCE_T":0,"DEPTH_FROM":0,"DEPTH_TO":0,"LONGITUDE_":0,"LONGITUDE1":0,"LONGITUD_1":0,"LONGITUD_2":"","LATITUDE_D":0,"LATITUDE_M":0,"LATITUDE_S":0,"LATITUDE_1":"","STATUS":"NO","MARINE_FIS":1},"geometry":{"type":"Point","coordinates":[79.23000336,10.13000011]},"source_id":"incois_wfs","acquired_at":"2026-08-30T18:51:42.205191+00:00"},{"type":"Feature","feature_key":"TN0824b","properties":{"OBJECTID":633,"SECTOR_NAM":"SOUTH TAMILNADU","SECTOR_ID":"SEC006","DIST_NAME":"Pudukkottai","LC_NAME":"Sembiyanmadevipattinam","LC_UNIQUE_":"TN0824b","LONGITUDE":79.23,"LATITUDE":10.14,"FORECAST_I":0,"UPDATED_DA":null,"FORECAST_D":null,"VALIDITY_D":null,"DIRECTION":"","BEARING":0,"DISTANCE_F":0,"DISTANCE_T":0,"DEPTH_FROM":0,"DEPTH_TO":0,"LONGITUDE_":0,"LONGITUDE1":0,"LONGITUD_1":0,"LONGITUD_2":"","LATITUDE_D":0,"LATITUDE_M":0,"LATITUDE_S":0,"LATITUDE_1":"","STATUS":"NO","MARINE_FIS":1},"geometry":{"type":"Point","coordinates":[79.23000336,10.14000034]},"source_id":"incois_wfs","acquired_at":"2026-08-30T18:51:42.205191+00:00"},{"type":"Feature","feature_key":"TN0825b","properties":{"OBJECTID":634,"SECTOR_NAM":"NORTH TAMILNADU","SECTOR_ID":"SEC007","DIST_NAME":"Thanjavur","LC_NAME":"Ganesapuram","LC_UNIQUE_":"TN0825b","LONGITUDE":79.23,"LATITUDE":10.14,"FORECAST_I":0,"UPDATED_DA":null,"FORECAST_D":null,"VALIDITY_D":null,"DIRECTION":"","BEARING":0,"DISTANCE_F":0,"DISTANCE_T":0,"DEPTH_FROM":0,"DEPTH_TO":0,"LONGITUDE_":0,"LONGITUDE1":0,"LONGITUD_1":0,"LONGITUD_2":"","LATITUDE_D":0,"LATITUDE_M":0,"LATITUDE_S":0,"LATITUDE_1":"","STATUS":"NO","MARINE_FIS":1},"geometry":{"type":"Point","coordinates":[79.23000336,10.14000034]},"source_id":"incois_wfs","acquired_at":"2026-08-30T18:51:42.205191+00:00"},{"type":"Feature","feature_key":"TN0826b","properties":{"OBJECTID":635,"SECTOR_NAM":"NORTH TAMILNADU","SECTOR_ID":"SEC007","DIST_NAME":"Thanjavur","LC_NAME":"Vallavanpattinam","LC_UNIQUE_":"TN0826b","LONGITUDE":79.23,"LATITUDE":10.15,"FORECAST_I":0,"UPDATED_DA":null,"FORECAST_D":null,"VALIDITY_D":null,"DIRECTION":"","BEARING":0,"DISTANCE_F":0,"DISTANCE_T":0,"DEPTH_FROM":0,"DEPTH_TO":0,"LONGITUDE_":0,"LONGITUDE1":0,"LONGITUD_1":0,"LONGITUD_2":"","LATITUDE_D":0,"LATITUDE_M":0,"LATITUDE_S":0,"LATITUDE_1":"","STATUS":"NO","MARINE_FIS":1},"geometry":{"type":"Point","coordinates":[79.23000336,10.14999962]},"source_id":"incois_wfs","acquired_at":"2026-08-30T18:51:42.205191+00:00"},{"type":"Feature","feature_key":"TN0827b","properties":{"OBJECTID":636,"SECTOR_NAM":"NORTH TAMILNADU","SECTOR_ID":"SEC007","DIST_NAME":"Thanjavur","LC_NAME":"Subbamachatram","LC_UNIQUE_":"TN0827b","LONGITUDE":79.24,"LATITUDE":10.15,"FORECAST_I":0,"UPDATED_DA":null,"FORECAST_D":null,"VALIDITY_D":null,"DIRECTION":"","BEARING":0,"DISTANCE_F":0,"DISTANCE_T":0,"DEPTH_FROM":0,"DEPTH_TO":0,"LONGITUDE_":0,"LONGITUDE1":0,"LONGITUD_1":0,"LONGITUD_2":"","LATITUDE_D":0,"LATITUDE_M":0,"LATITUDE_S":0,"LATITUDE_1":"","STATUS":"NO","MARINE_FIS":1},"geometry":{"type":"Point","coordinates":[79.23999786,10.14999962]},"source_id":"incois_wfs","acquired_at":"2026-08-30T18:51:42.205191+00:00"},{"type":"Feature","feature_key":"TN0828b","properties":{"OBJECTID":637,"SECTOR_NAM":"NORTH TAMILNADU","SECTOR_ID":"SEC007","DIST_NAME":"Thanjavur","LC_NAME":"Somanathanpattinam","LC_UNIQUE_":"TN0828b","LONGITUDE":79.24,"LATITUDE":10.16,"FORECAST_I":0,"UPDATED_DA":null,"FORECAST_D":null,"VALIDITY_D":null,"DIRECTION":"","BEARING":0,"DISTANCE_F":0,"DISTANCE_T":0,"DEPTH_FROM":0,"DEPTH_TO":0,"LONGITUDE_":0,"LONGITUDE1":0,"LONGITUD_1":0,"LONGITUD_2":"","LATITUDE_D":0,"LATITUDE_M":0,"LATITUDE_S":0,"LATITUDE_1":"","STATUS":"NO","MARINE_FIS":1},"geometry":{"type":"Point","coordinates":[79.23999786,10.15999985]},"source_id":"incois_wfs","acquired_at":"2026-08-30T18:51:42.205191+00:00"},{"type":"Feature","feature_key":"TN0829b","properties":{"OBJECTID":638,"SECTOR_NAM":"NORTH TAMILNADU","SECTOR_ID":"SEC007","DIST_NAME":"Thanjavur","LC_NAME":"Annanagar Pudhutheru","LC_UNIQUE_":"TN0829b","LONGITUDE":79.24,"LATITUDE":10.17,"FORECAST_I":0,"UPDATED_DA":null,"FORECAST_D":null,"VALIDITY_D":null,"DIRECTION":"","BEARING":0,"DISTANCE_F":0,"DISTANCE_T":0,"DEPTH_FROM":0,"DEPTH_TO":0,"LONGITUDE_":0,"LONGITUDE1":0,"LONGITUD_1":0,"LONGITUD_2":"","LATITUDE_D":0,"LATITUDE_M":0,"LATITUDE_S":0,"LATITUDE_1":"","STATUS":"NO","MARINE_FIS":1},"geometry":{"type":"Point","coordinates":[79.23999786,10.17000008]},"source_id":"incois_wfs","acquired_at":"2026-08-30T18:51:42.205191+00:00"},{"type":"Feature","feature_key":"TN0830b","properties":{"OBJECTID":639,"SECTOR_NAM":"NORTH TAMILNADU","SECTOR_ID":"SEC007","DIST_NAME":"Thanjavur","LC_NAME":"Mandhiripattinam","LC_UNIQUE_":"TN0830b","LONGITUDE":79.24,"LATITUDE":10.17,"FORECAST_I":0,"UPDATED_DA":null,"FORECAST_D":null,"VALIDITY_D":null,"DIRECTION":"","BEARING":0,"DISTANCE_F":0,"DISTANCE_T":0,"DEPTH_FROM":0,"DEPTH_TO":0,"LONGITUDE_":0,"LONGITUDE1":0,"LONGITUD_1":0,"LONGITUD_2":"","LATITUDE_D":0,"LATITUDE_M":0,"LATITUDE_S":0,"LATITUDE_1":"","STATUS":"NO","MARINE_FIS":1},"geometry":{"type":"Point","coordinates":[79.23999786,10.17000008]},"source_id":"incois_wfs","acquired_at":"2026-08-30T18:51:42.205191+00:00"},{"type":"Feature","feature_key":"TN0831b","properties":{"OBJECTID":640,"SECTOR_NAM":"NORTH TAMILNADU","SECTOR_ID":"SEC007","DIST_NAME":"Thanjavur","LC_NAME":"Senthalaivayal","LC_UNIQUE_":"TN0831b","LONGITUDE":79.25,"LATITUDE":10.19,"FORECAST_I":0,"UPDATED_DA":null,"FORECAST_D":null,"VALIDITY_D":null,"DIRECTION":"","BEARING":0,"DISTANCE_F":0,"DISTANCE_T":0,"DEPTH_FROM":0,"DEPTH_TO":0,"LONGITUDE_":0,"LONGITUDE1":0,"LONGITUD_1":0,"LONGITUD_2":"","LATITUDE_D":0,"LATITUDE_M":0,"LATITUDE_S":0,"LATITUDE_1":"","STATUS":"NO","MARINE_FIS":1},"geometry":{"type":"Point","coordinates":[79.25,10.18999958]},"source_id":"incois_wfs","acquired_at":"2026-08-30T18:51:42.205191+00:00"},{"type":"Feature","feature_key":"TN0832b","properties":{"OBJECTID":641,"SECTOR_NAM":"NORTH TAMILNADU","SECTOR_ID":"SEC007","DIST_NAME":"Thanjavur","LC_NAME":"Adaikkadevan","LC_UNIQUE_":"TN0832b","LONGITUDE":79.26,"LATITUDE":10.19,"FORECAST_I":0,"UPDATED_DA":null,"FORECAST_D":null,"VALIDITY_D":null,"DIRECTION":"","BEARING":0,"DISTANCE_F":0,"DISTANCE_T":0,"DEPTH_FROM":0,"DEPTH_TO":0,"LONGITUDE_":0,"LONGITUDE1":0,"LONGITUD_1":0,"LONGITUD_2":"","LATITUDE_D":0,"LATITUDE_M":0,"LATITUDE_S":0,"LATITUDE_1":"","STATUS":"NO","MARINE_FIS":1},"geometry":{"type":"Point","coordinates":[79.26000214,10.18999958]},"source_id":"incois_wfs","acquired_at":"2026-08-30T18:51:42.205191+00:00"}]}