{"type":"FeatureCollection","features":[{"type":"Feature","feature_key":"46830aa94190211d","properties":{"id":"gom_marine_national_park","name_en":"Gulf of Mannar Marine National Park","name_local":"மன்னார் வளைகுடா கடல் தேசிய பூங்கா","is_approximate":true,"provenance_note":"No reliable keyless authoritative polygon source for 'Gulf of Mannar Marine National Park' was located within this script's scope. THIS IS A DOCUMENTED APPROXIMATION, not the authoritative park boundary: a ~5.0 km-wide buffer (documented: line between anchor ports ['Rameswaram', 'Tuticorin']), clipped to the region bounding box. Built by scripts/fetch_static.py:build_approx_mpa_feature on 2026-08-31. Replace by dropping a real boundary file at data/static/mpa_gulf_of_mannar.geojson and re-running with --force."},"geometry":{"type":"Polygon","coordinates":[[[78.14895155626871,8.72148310105856],[78.14469642437928,8.720301699526006],[78.14034598451315,8.71954306262427],[78.1359421337844,8.719214496441426],[78.13152728368294,8.719319165249429],[78.12714395162868,8.719856061030441],[78.12283435150546,8.720820013184591],[78.11863998711833,8.722201738325689],[78.1146012524892,8.723987929685293],[78.11075704284036,8.726161385264183],[78.10714438001219,8.728701173497],[78.10379805592261,8.731582834834674],[78.10075029750188,8.734778617303245],[78.09803045632965,8.738257743770552],[78.09566472596326,8.741986708346827],[78.09367588967935,8.745929599064743],[78.09208310105856,8.750048443731282],[78.090901699526,8.754303575620716],[78.09014306262426,8.75865401548686],[78.08981449644142,8.763057866215608],[78.08991916524943,8.767472716317053],[78.09045606103044,8.771856048371315],[78.09142001318459,8.776165648494542],[78.09280173832569,8.780360012881678],[78.09458792968529,8.7843987475108],[78.09676138526419,8.788242957159635],[78.099301173497,8.791855619987805],[78.10218283483468,8.795201944077393],[78.10537861730324,8.79824970249813],[78.10885774377056,8.800969543670348],[78.11258670834683,8.803335274036744],[78.11652959906473,8.80532411032065],[79.29462959906473,9.328724110320648],[79.29874844373128,9.33031689894144],[79.30300357562072,9.331498300473994],[79.30735401548685,9.33225693737573],[79.3117578662156,9.332585503558574],[79.31617271631706,9.332480834750571],[79.32055604837132,9.331943938969559],[79.32486564849454,9.330979986815409],[79.32906001288167,9.329598261674311],[79.3330987475108,9.327812070314707],[79.33694295715964,9.325638614735817],[79.34055561998781,9.323098826503],[79.34390194407739,9.320217165165326],[79.34694970249812,9.317021382696755],[79.34966954367034,9.313542256229448],[79.35203527403674,9.309813291653173],[79.35402411032065,9.305870400935257],[79.35561689894143,9.301751556268718],[79.356798300474,9.297496424379284],[79.35755693737573,9.29314598451314],[79.35788550355858,9.288742133784393],[79.35778083475057,9.284327283682947],[79.35724393896956,9.279943951628685],[79.35627998681541,9.275634351505458],[79.35489826167431,9.271439987118322],[79.35311207031471,9.2674012524892],[79.35093861473581,9.263557042840365],[79.348398826503,9.259944380012195],[79.34551716516532,9.256598055922607],[79.34232138269675,9.25355029750187],[79.33884225622944,9.250830456329652],[79.33511329165317,9.248464725963256],[79.33117040093526,9.24647588967935],[78.15307040093526,8.723075889679352],[78.14895155626871,8.72148310105856]]]},"source_id":"derived:approx_mpa_polygon","acquired_at":"2026-08-31T14:57:23.303118+00:00"}]}