{"type":"FeatureCollection","features":[{"type":"Feature","feature_key":"SEC006","properties":{"SDE_SECTOR":12.639,"PERIMETER":14.387,"SBOUND_":7,"SBOUND_ID":13,"SECTORNAME":"SOUTH TAMILNADU","SEC_ID":"SEC006","SHAPE_AREA":12.6385347187,"SHAPE_LEN":14.38664},"geometry":{"type":"MultiPolygon","coordinates":[[[[79.02595821,10.06777825],[81.33168821,10.06777825],[81.33168821,7.01648825],[77.18965821,7.01648825],[77.18965821,7.38235825],[77.18965821,10.06777825],[79.02595821,10.06777825]]]]},"source_id":"incois_wfs","acquired_at":"2026-08-31T18:05:40.314431+00:00"}]}